<?xml version="1.0" encoding="UTF-8"?>
<gpx version="1.1" creator="earthling demo" xmlns="http://www.topografix.com/GPX/1/1">
  <trk><name>day01_chamonix_trient</name><trkseg>
    <trkpt lat="45.923700" lon="6.869400"><ele>1035.5</ele><time>2026-07-01T06:30:00Z</time></trkpt>
    <trkpt lat="45.923893" lon="6.869570"><ele>1036.7</ele><time>2026-07-01T06:30:20Z</time></trkpt>
    <trkpt lat="45.924092" lon="6.869734"><ele>1036.3</ele><time>2026-07-01T06:30:40Z</time></trkpt>
    <trkpt lat="45.924297" lon="6.869892"><ele>1034.3</ele><time>2026-07-01T06:31:00Z</time></trkpt>
    <trkpt lat="45.924507" lon="6.870045"><ele>1038.0</ele><time>2026-07-01T06:31:20Z</time></trkpt>
    <trkpt lat="45.924721" lon="6.870193"><ele>1037.8</ele><time>2026-07-01T06:31:40Z</time></trkpt>
    <trkpt lat="45.924940" lon="6.870338"><ele>1036.7</ele><time>2026-07-01T06:32:00Z</time></trkpt>
    <trkpt lat="45.925161" lon="6.870480"><ele>1038.8</ele><time>2026-07-01T06:32:20Z</time></trkpt>
    <trkpt lat="45.925384" lon="6.870620"><ele>1038.9</ele><time>2026-07-01T06:32:40Z</time></trkpt>
    <trkpt lat="45.925608" lon="6.870759"><ele>1039.2</ele><time>2026-07-01T06:33:00Z</time></trkpt>
    <trkpt lat="45.925831" lon="6.870899"><ele>1039.3</ele><time>2026-07-01T06:33:20Z</time></trkpt>
    <trkpt lat="45.926053" lon="6.871040"><ele>1040.5</ele><time>2026-07-01T06:33:40Z</time></trkpt>
    <trkpt lat="45.926272" lon="6.871183"><ele>1039.0</ele><time>2026-07-01T06:34:00Z</time></trkpt>
    <trkpt lat="45.926488" lon="6.871331"><ele>1040.2</ele><time>2026-07-01T06:34:20Z</time></trkpt>
    <trkpt lat="45.926698" lon="6.871484"><ele>1040.2</ele><time>2026-07-01T06:34:40Z</time></trkpt>
    <trkpt lat="45.926903" lon="6.871642"><ele>1042.2</ele><time>2026-07-01T06:35:00Z</time></trkpt>
    <trkpt lat="45.927100" lon="6.871807"><ele>1041.8</ele><time>2026-07-01T06:35:20Z</time></trkpt>
    <trkpt lat="45.927290" lon="6.871980"><ele>1041.7</ele><time>2026-07-01T06:35:40Z</time></trkpt>
    <trkpt lat="45.927472" lon="6.872162"><ele>1041.4</ele><time>2026-07-01T06:36:00Z</time></trkpt>
    <trkpt lat="45.927645" lon="6.872351"><ele>1042.6</ele><time>2026-07-01T06:36:20Z</time></trkpt>
    <trkpt lat="45.927810" lon="6.872550"><ele>1043.5</ele><time>2026-07-01T06:36:40Z</time></trkpt>
    <trkpt lat="45.927965" lon="6.872758"><ele>1043.5</ele><time>2026-07-01T06:37:00Z</time></trkpt>
    <trkpt lat="45.928112" lon="6.872974"><ele>1046.2</ele><time>2026-07-01T06:37:20Z</time></trkpt>
    <trkpt lat="45.928250" lon="6.873199"><ele>1046.2</ele><time>2026-07-01T06:37:40Z</time></trkpt>
    <trkpt lat="45.928381" lon="6.873431"><ele>1041.1</ele><time>2026-07-01T06:38:00Z</time></trkpt>
    <trkpt lat="45.928504" lon="6.873670"><ele>1042.7</ele><time>2026-07-01T06:38:20Z</time></trkpt>
    <trkpt lat="45.928622" lon="6.873916"><ele>1045.7</ele><time>2026-07-01T06:38:40Z</time></trkpt>
    <trkpt lat="45.928735" lon="6.874166"><ele>1045.8</ele><time>2026-07-01T06:39:00Z</time></trkpt>
    <trkpt lat="45.928844" lon="6.874419"><ele>1047.1</ele><time>2026-07-01T06:39:20Z</time></trkpt>
    <trkpt lat="45.928952" lon="6.874675"><ele>1047.6</ele><time>2026-07-01T06:39:40Z</time></trkpt>
    <trkpt lat="45.929059" lon="6.874931"><ele>1050.8</ele><time>2026-07-01T06:40:00Z</time></trkpt>
    <trkpt lat="45.929167" lon="6.875185"><ele>1046.4</ele><time>2026-07-01T06:40:20Z</time></trkpt>
    <trkpt lat="45.929278" lon="6.875437"><ele>1047.9</ele><time>2026-07-01T06:40:40Z</time></trkpt>
    <trkpt lat="45.929394" lon="6.875685"><ele>1052.0</ele><time>2026-07-01T06:41:00Z</time></trkpt>
    <trkpt lat="45.929515" lon="6.875926"><ele>1050.3</ele><time>2026-07-01T06:41:20Z</time></trkpt>
    <trkpt lat="45.929644" lon="6.876160"><ele>1050.8</ele><time>2026-07-01T06:41:40Z</time></trkpt>
    <trkpt lat="45.929783" lon="6.876385"><ele>1049.4</ele><time>2026-07-01T06:42:00Z</time></trkpt>
    <trkpt lat="45.929931" lon="6.876599"><ele>1048.1</ele><time>2026-07-01T06:42:20Z</time></trkpt>
    <trkpt lat="45.930092" lon="6.876802"><ele>1051.3</ele><time>2026-07-01T06:42:40Z</time></trkpt>
    <trkpt lat="45.930265" lon="6.876992"><ele>1051.6</ele><time>2026-07-01T06:43:00Z</time></trkpt>
    <trkpt lat="45.930451" lon="6.877168"><ele>1050.0</ele><time>2026-07-01T06:43:20Z</time></trkpt>
    <trkpt lat="45.930651" lon="6.877331"><ele>1051.3</ele><time>2026-07-01T06:43:40Z</time></trkpt>
    <trkpt lat="45.930866" lon="6.877479"><ele>1052.6</ele><time>2026-07-01T06:44:00Z</time></trkpt>
    <trkpt lat="45.931095" lon="6.877614"><ele>1051.7</ele><time>2026-07-01T06:44:20Z</time></trkpt>
    <trkpt lat="45.931338" lon="6.877734"><ele>1053.4</ele><time>2026-07-01T06:44:40Z</time></trkpt>
    <trkpt lat="45.931595" lon="6.877840"><ele>1054.1</ele><time>2026-07-01T06:45:00Z</time></trkpt>
    <trkpt lat="45.931864" lon="6.877933"><ele>1054.5</ele><time>2026-07-01T06:45:20Z</time></trkpt>
    <trkpt lat="45.932145" lon="6.878015"><ele>1054.1</ele><time>2026-07-01T06:45:40Z</time></trkpt>
    <trkpt lat="45.932437" lon="6.878086"><ele>1056.2</ele><time>2026-07-01T06:46:00Z</time></trkpt>
    <trkpt lat="45.932738" lon="6.878148"><ele>1057.0</ele><time>2026-07-01T06:46:20Z</time></trkpt>
    <trkpt lat="45.933047" lon="6.878203"><ele>1056.6</ele><time>2026-07-01T06:46:40Z</time></trkpt>
    <trkpt lat="45.933361" lon="6.878251"><ele>1055.3</ele><time>2026-07-01T06:47:00Z</time></trkpt>
    <trkpt lat="45.933679" lon="6.878296"><ele>1058.0</ele><time>2026-07-01T06:47:20Z</time></trkpt>
    <trkpt lat="45.933998" lon="6.878340"><ele>1056.6</ele><time>2026-07-01T06:47:40Z</time></trkpt>
    <trkpt lat="45.934317" lon="6.878384"><ele>1059.1</ele><time>2026-07-01T06:48:00Z</time></trkpt>
    <trkpt lat="45.934633" lon="6.878431"><ele>1056.6</ele><time>2026-07-01T06:48:20Z</time></trkpt>
    <trkpt lat="45.934945" lon="6.878483"><ele>1060.0</ele><time>2026-07-01T06:48:40Z</time></trkpt>
    <trkpt lat="45.935249" lon="6.878541"><ele>1059.0</ele><time>2026-07-01T06:49:00Z</time></trkpt>
    <trkpt lat="45.935544" lon="6.878609"><ele>1057.6</ele><time>2026-07-01T06:49:20Z</time></trkpt>
    <trkpt lat="45.935829" lon="6.878688"><ele>1059.4</ele><time>2026-07-01T06:49:40Z</time></trkpt>
    <trkpt lat="45.936101" lon="6.878779"><ele>1060.4</ele><time>2026-07-01T06:50:00Z</time></trkpt>
    <trkpt lat="45.936358" lon="6.878884"><ele>1061.2</ele><time>2026-07-01T06:50:20Z</time></trkpt>
    <trkpt lat="45.936600" lon="6.879005"><ele>1059.7</ele><time>2026-07-01T06:50:40Z</time></trkpt>
    <trkpt lat="45.936826" lon="6.879142"><ele>1059.9</ele><time>2026-07-01T06:51:00Z</time></trkpt>
    <trkpt lat="45.937034" lon="6.879297"><ele>1062.3</ele><time>2026-07-01T06:51:20Z</time></trkpt>
    <trkpt lat="45.937225" lon="6.879469"><ele>1061.7</ele><time>2026-07-01T06:51:40Z</time></trkpt>
    <trkpt lat="45.937398" lon="6.879659"><ele>1063.2</ele><time>2026-07-01T06:52:00Z</time></trkpt>
    <trkpt lat="45.937553" lon="6.879868"><ele>1064.4</ele><time>2026-07-01T06:52:20Z</time></trkpt>
    <trkpt lat="45.937690" lon="6.880093"><ele>1061.2</ele><time>2026-07-01T06:52:40Z</time></trkpt>
    <trkpt lat="45.937811" lon="6.880335"><ele>1064.5</ele><time>2026-07-01T06:53:00Z</time></trkpt>
    <trkpt lat="45.937916" lon="6.880593"><ele>1066.4</ele><time>2026-07-01T06:53:20Z</time></trkpt>
    <trkpt lat="45.938007" lon="6.880865"><ele>1064.5</ele><time>2026-07-01T06:53:40Z</time></trkpt>
    <trkpt lat="45.938085" lon="6.881151"><ele>1064.2</ele><time>2026-07-01T06:54:00Z</time></trkpt>
    <trkpt lat="45.938151" lon="6.881447"><ele>1066.9</ele><time>2026-07-01T06:54:20Z</time></trkpt>
    <trkpt lat="45.938209" lon="6.881752"><ele>1066.6</ele><time>2026-07-01T06:54:40Z</time></trkpt>
    <trkpt lat="45.938260" lon="6.882064"><ele>1068.0</ele><time>2026-07-01T06:55:00Z</time></trkpt>
    <trkpt lat="45.938306" lon="6.882381"><ele>1066.6</ele><time>2026-07-01T06:55:20Z</time></trkpt>
    <trkpt lat="45.938350" lon="6.882700"><ele>1065.3</ele><time>2026-07-01T06:55:40Z</time></trkpt>
    <trkpt lat="45.938394" lon="6.883019"><ele>1067.8</ele><time>2026-07-01T06:56:00Z</time></trkpt>
    <trkpt lat="45.938440" lon="6.883336"><ele>1067.7</ele><time>2026-07-01T06:56:20Z</time></trkpt>
    <trkpt lat="45.938491" lon="6.883648"><ele>1069.9</ele><time>2026-07-01T06:56:40Z</time></trkpt>
    <trkpt lat="45.938549" lon="6.883953"><ele>1069.5</ele><time>2026-07-01T06:57:00Z</time></trkpt>
    <trkpt lat="45.938615" lon="6.884249"><ele>1067.2</ele><time>2026-07-01T06:57:20Z</time></trkpt>
    <trkpt lat="45.938693" lon="6.884535"><ele>1068.2</ele><time>2026-07-01T06:57:40Z</time></trkpt>
    <trkpt lat="45.938784" lon="6.884807"><ele>1071.8</ele><time>2026-07-01T06:58:00Z</time></trkpt>
    <trkpt lat="45.938889" lon="6.885065"><ele>1071.9</ele><time>2026-07-01T06:58:20Z</time></trkpt>
    <trkpt lat="45.939010" lon="6.885307"><ele>1070.3</ele><time>2026-07-01T06:58:40Z</time></trkpt>
    <trkpt lat="45.939147" lon="6.885532"><ele>1071.7</ele><time>2026-07-01T06:59:00Z</time></trkpt>
    <trkpt lat="45.939302" lon="6.885741"><ele>1072.8</ele><time>2026-07-01T06:59:20Z</time></trkpt>
    <trkpt lat="45.939475" lon="6.885931"><ele>1073.3</ele><time>2026-07-01T06:59:40Z</time></trkpt>
    <trkpt lat="45.939666" lon="6.886103"><ele>1074.3</ele><time>2026-07-01T07:00:00Z</time></trkpt>
    <trkpt lat="45.939874" lon="6.886258"><ele>1073.8</ele><time>2026-07-01T07:00:20Z</time></trkpt>
    <trkpt lat="45.940100" lon="6.886395"><ele>1073.7</ele><time>2026-07-01T07:00:40Z</time></trkpt>
    <trkpt lat="45.940342" lon="6.886516"><ele>1073.9</ele><time>2026-07-01T07:01:00Z</time></trkpt>
    <trkpt lat="45.940599" lon="6.886621"><ele>1076.3</ele><time>2026-07-01T07:01:20Z</time></trkpt>
    <trkpt lat="45.940871" lon="6.886712"><ele>1071.7</ele><time>2026-07-01T07:01:40Z</time></trkpt>
    <trkpt lat="45.941156" lon="6.886791"><ele>1075.3</ele><time>2026-07-01T07:02:00Z</time></trkpt>
    <trkpt lat="45.941451" lon="6.886859"><ele>1076.0</ele><time>2026-07-01T07:02:20Z</time></trkpt>
    <trkpt lat="45.941755" lon="6.886917"><ele>1074.2</ele><time>2026-07-01T07:02:40Z</time></trkpt>
    <trkpt lat="45.942067" lon="6.886969"><ele>1077.3</ele><time>2026-07-01T07:03:00Z</time></trkpt>
    <trkpt lat="45.942383" lon="6.887016"><ele>1076.2</ele><time>2026-07-01T07:03:20Z</time></trkpt>
    <trkpt lat="45.942702" lon="6.887060"><ele>1078.9</ele><time>2026-07-01T07:03:40Z</time></trkpt>
    <trkpt lat="45.943021" lon="6.887104"><ele>1077.9</ele><time>2026-07-01T07:04:00Z</time></trkpt>
    <trkpt lat="45.943339" lon="6.887149"><ele>1079.5</ele><time>2026-07-01T07:04:20Z</time></trkpt>
    <trkpt lat="45.943653" lon="6.887197"><ele>1080.7</ele><time>2026-07-01T07:04:40Z</time></trkpt>
    <trkpt lat="45.943962" lon="6.887252"><ele>1079.9</ele><time>2026-07-01T07:05:00Z</time></trkpt>
    <trkpt lat="45.944263" lon="6.887314"><ele>1078.4</ele><time>2026-07-01T07:05:20Z</time></trkpt>
    <trkpt lat="45.944555" lon="6.887385"><ele>1077.9</ele><time>2026-07-01T07:05:40Z</time></trkpt>
    <trkpt lat="45.944836" lon="6.887467"><ele>1083.2</ele><time>2026-07-01T07:06:00Z</time></trkpt>
    <trkpt lat="45.945105" lon="6.887560"><ele>1080.8</ele><time>2026-07-01T07:06:20Z</time></trkpt>
    <trkpt lat="45.945362" lon="6.887666"><ele>1080.4</ele><time>2026-07-01T07:06:40Z</time></trkpt>
    <trkpt lat="45.945605" lon="6.887786"><ele>1082.1</ele><time>2026-07-01T07:07:00Z</time></trkpt>
    <trkpt lat="45.945834" lon="6.887921"><ele>1082.0</ele><time>2026-07-01T07:07:20Z</time></trkpt>
    <trkpt lat="45.946049" lon="6.888069"><ele>1084.0</ele><time>2026-07-01T07:07:40Z</time></trkpt>
    <trkpt lat="45.946249" lon="6.888232"><ele>1083.2</ele><time>2026-07-01T07:08:00Z</time></trkpt>
    <trkpt lat="45.946435" lon="6.888408"><ele>1083.6</ele><time>2026-07-01T07:08:20Z</time></trkpt>
    <trkpt lat="45.946608" lon="6.888598"><ele>1082.9</ele><time>2026-07-01T07:08:40Z</time></trkpt>
    <trkpt lat="45.946769" lon="6.888801"><ele>1085.1</ele><time>2026-07-01T07:09:00Z</time></trkpt>
    <trkpt lat="45.946917" lon="6.889015"><ele>1083.3</ele><time>2026-07-01T07:09:20Z</time></trkpt>
    <trkpt lat="45.947056" lon="6.889240"><ele>1086.2</ele><time>2026-07-01T07:09:40Z</time></trkpt>
    <trkpt lat="45.947185" lon="6.889474"><ele>1087.9</ele><time>2026-07-01T07:10:00Z</time></trkpt>
    <trkpt lat="45.947306" lon="6.889715"><ele>1083.8</ele><time>2026-07-01T07:10:20Z</time></trkpt>
    <trkpt lat="45.947422" lon="6.889963"><ele>1082.8</ele><time>2026-07-01T07:10:40Z</time></trkpt>
    <trkpt lat="45.947533" lon="6.890215"><ele>1087.8</ele><time>2026-07-01T07:11:00Z</time></trkpt>
    <trkpt lat="45.947641" lon="6.890469"><ele>1091.2</ele><time>2026-07-01T07:11:20Z</time></trkpt>
    <trkpt lat="45.947748" lon="6.890725"><ele>1086.3</ele><time>2026-07-01T07:11:40Z</time></trkpt>
    <trkpt lat="45.947856" lon="6.890981"><ele>1086.3</ele><time>2026-07-01T07:12:00Z</time></trkpt>
    <trkpt lat="45.947965" lon="6.891234"><ele>1089.5</ele><time>2026-07-01T07:12:20Z</time></trkpt>
    <trkpt lat="45.948078" lon="6.891484"><ele>1087.8</ele><time>2026-07-01T07:12:40Z</time></trkpt>
    <trkpt lat="45.948196" lon="6.891730"><ele>1088.7</ele><time>2026-07-01T07:13:00Z</time></trkpt>
    <trkpt lat="45.948319" lon="6.891969"><ele>1089.3</ele><time>2026-07-01T07:13:20Z</time></trkpt>
    <trkpt lat="45.948450" lon="6.892201"><ele>1091.1</ele><time>2026-07-01T07:13:40Z</time></trkpt>
    <trkpt lat="45.948588" lon="6.892426"><ele>1090.1</ele><time>2026-07-01T07:14:00Z</time></trkpt>
    <trkpt lat="45.948735" lon="6.892642"><ele>1091.6</ele><time>2026-07-01T07:14:20Z</time></trkpt>
    <trkpt lat="45.948890" lon="6.892850"><ele>1091.3</ele><time>2026-07-01T07:14:40Z</time></trkpt>
    <trkpt lat="45.949055" lon="6.893049"><ele>1090.7</ele><time>2026-07-01T07:15:00Z</time></trkpt>
    <trkpt lat="45.949228" lon="6.893238"><ele>1091.9</ele><time>2026-07-01T07:15:20Z</time></trkpt>
    <trkpt lat="45.949410" lon="6.893420"><ele>1091.4</ele><time>2026-07-01T07:15:40Z</time></trkpt>
    <trkpt lat="45.949600" lon="6.893593"><ele>1093.3</ele><time>2026-07-01T07:16:00Z</time></trkpt>
    <trkpt lat="45.949797" lon="6.893758"><ele>1092.0</ele><time>2026-07-01T07:16:20Z</time></trkpt>
    <trkpt lat="45.950002" lon="6.893916"><ele>1092.5</ele><time>2026-07-01T07:16:40Z</time></trkpt>
    <trkpt lat="45.950212" lon="6.894069"><ele>1096.7</ele><time>2026-07-01T07:17:00Z</time></trkpt>
    <trkpt lat="45.950428" lon="6.894217"><ele>1094.9</ele><time>2026-07-01T07:17:20Z</time></trkpt>
    <trkpt lat="45.950647" lon="6.894360"><ele>1095.3</ele><time>2026-07-01T07:17:40Z</time></trkpt>
    <trkpt lat="45.950869" lon="6.894501"><ele>1096.5</ele><time>2026-07-01T07:18:00Z</time></trkpt>
    <trkpt lat="45.951092" lon="6.894641"><ele>1095.6</ele><time>2026-07-01T07:18:20Z</time></trkpt>
    <trkpt lat="45.951316" lon="6.894780"><ele>1096.3</ele><time>2026-07-01T07:18:40Z</time></trkpt>
    <trkpt lat="45.951539" lon="6.894920"><ele>1097.7</ele><time>2026-07-01T07:19:00Z</time></trkpt>
    <trkpt lat="45.951760" lon="6.895062"><ele>1097.9</ele><time>2026-07-01T07:19:20Z</time></trkpt>
    <trkpt lat="45.951979" lon="6.895207"><ele>1096.2</ele><time>2026-07-01T07:19:40Z</time></trkpt>
    <trkpt lat="45.952193" lon="6.895355"><ele>1099.6</ele><time>2026-07-01T07:20:00Z</time></trkpt>
    <trkpt lat="45.952403" lon="6.895508"><ele>1097.8</ele><time>2026-07-01T07:20:20Z</time></trkpt>
    <trkpt lat="45.952608" lon="6.895666"><ele>1097.6</ele><time>2026-07-01T07:20:40Z</time></trkpt>
    <trkpt lat="45.952807" lon="6.895830"><ele>1098.2</ele><time>2026-07-01T07:21:00Z</time></trkpt>
    <trkpt lat="45.953000" lon="6.896000"><ele>1099.4</ele><time>2026-07-01T07:21:20Z</time></trkpt>
    <trkpt lat="45.953175" lon="6.896205"><ele>1103.5</ele><time>2026-07-01T07:21:40Z</time></trkpt>
    <trkpt lat="45.953356" lon="6.896403"><ele>1100.3</ele><time>2026-07-01T07:22:00Z</time></trkpt>
    <trkpt lat="45.953544" lon="6.896596"><ele>1103.3</ele><time>2026-07-01T07:22:20Z</time></trkpt>
    <trkpt lat="45.953736" lon="6.896783"><ele>1100.9</ele><time>2026-07-01T07:22:40Z</time></trkpt>
    <trkpt lat="45.953934" lon="6.896966"><ele>1105.1</ele><time>2026-07-01T07:23:00Z</time></trkpt>
    <trkpt lat="45.954135" lon="6.897144"><ele>1107.5</ele><time>2026-07-01T07:23:20Z</time></trkpt>
    <trkpt lat="45.954339" lon="6.897320"><ele>1106.8</ele><time>2026-07-01T07:23:40Z</time></trkpt>
    <trkpt lat="45.954545" lon="6.897494"><ele>1107.2</ele><time>2026-07-01T07:24:00Z</time></trkpt>
    <trkpt lat="45.954752" lon="6.897667"><ele>1109.5</ele><time>2026-07-01T07:24:20Z</time></trkpt>
    <trkpt lat="45.954958" lon="6.897841"><ele>1111.3</ele><time>2026-07-01T07:24:40Z</time></trkpt>
    <trkpt lat="45.955161" lon="6.898017"><ele>1112.2</ele><time>2026-07-01T07:25:00Z</time></trkpt>
    <trkpt lat="45.955362" lon="6.898197"><ele>1115.2</ele><time>2026-07-01T07:25:20Z</time></trkpt>
    <trkpt lat="45.955557" lon="6.898381"><ele>1113.6</ele><time>2026-07-01T07:25:40Z</time></trkpt>
    <trkpt lat="45.955747" lon="6.898571"><ele>1113.4</ele><time>2026-07-01T07:26:00Z</time></trkpt>
    <trkpt lat="45.955931" lon="6.898767"><ele>1115.1</ele><time>2026-07-01T07:26:20Z</time></trkpt>
    <trkpt lat="45.956106" lon="6.898972"><ele>1116.2</ele><time>2026-07-01T07:26:40Z</time></trkpt>
    <trkpt lat="45.956273" lon="6.899185"><ele>1117.5</ele><time>2026-07-01T07:27:00Z</time></trkpt>
    <trkpt lat="45.956431" lon="6.899407"><ele>1118.3</ele><time>2026-07-01T07:27:20Z</time></trkpt>
    <trkpt lat="45.956579" lon="6.899638"><ele>1119.6</ele><time>2026-07-01T07:27:40Z</time></trkpt>
    <trkpt lat="45.956718" lon="6.899879"><ele>1117.9</ele><time>2026-07-01T07:28:00Z</time></trkpt>
    <trkpt lat="45.956848" lon="6.900129"><ele>1122.7</ele><time>2026-07-01T07:28:20Z</time></trkpt>
    <trkpt lat="45.956968" lon="6.900389"><ele>1121.6</ele><time>2026-07-01T07:28:40Z</time></trkpt>
    <trkpt lat="45.957080" lon="6.900657"><ele>1121.7</ele><time>2026-07-01T07:29:00Z</time></trkpt>
    <trkpt lat="45.957185" lon="6.900932"><ele>1125.4</ele><time>2026-07-01T07:29:20Z</time></trkpt>
    <trkpt lat="45.957283" lon="6.901214"><ele>1127.5</ele><time>2026-07-01T07:29:40Z</time></trkpt>
    <trkpt lat="45.957375" lon="6.901501"><ele>1127.3</ele><time>2026-07-01T07:30:00Z</time></trkpt>
    <trkpt lat="45.957464" lon="6.901793"><ele>1127.8</ele><time>2026-07-01T07:30:20Z</time></trkpt>
    <trkpt lat="45.957550" lon="6.902086"><ele>1127.2</ele><time>2026-07-01T07:30:40Z</time></trkpt>
    <trkpt lat="45.957636" lon="6.902380"><ele>1133.9</ele><time>2026-07-01T07:31:00Z</time></trkpt>
    <trkpt lat="45.957723" lon="6.902673"><ele>1131.9</ele><time>2026-07-01T07:31:20Z</time></trkpt>
    <trkpt lat="45.957813" lon="6.902963"><ele>1129.9</ele><time>2026-07-01T07:31:40Z</time></trkpt>
    <trkpt lat="45.957908" lon="6.903248"><ele>1131.5</ele><time>2026-07-01T07:32:00Z</time></trkpt>
    <trkpt lat="45.958009" lon="6.903526"><ele>1133.8</ele><time>2026-07-01T07:32:20Z</time></trkpt>
    <trkpt lat="45.958119" lon="6.903797"><ele>1132.4</ele><time>2026-07-01T07:32:40Z</time></trkpt>
    <trkpt lat="45.958239" lon="6.904057"><ele>1136.0</ele><time>2026-07-01T07:33:00Z</time></trkpt>
    <trkpt lat="45.958370" lon="6.904306"><ele>1136.0</ele><time>2026-07-01T07:33:20Z</time></trkpt>
    <trkpt lat="45.958513" lon="6.904542"><ele>1139.6</ele><time>2026-07-01T07:33:40Z</time></trkpt>
    <trkpt lat="45.958671" lon="6.904764"><ele>1140.2</ele><time>2026-07-01T07:34:00Z</time></trkpt>
    <trkpt lat="45.958843" lon="6.904972"><ele>1135.7</ele><time>2026-07-01T07:34:20Z</time></trkpt>
    <trkpt lat="45.959030" lon="6.905165"><ele>1140.9</ele><time>2026-07-01T07:34:40Z</time></trkpt>
    <trkpt lat="45.959232" lon="6.905342"><ele>1139.4</ele><time>2026-07-01T07:35:00Z</time></trkpt>
    <trkpt lat="45.959450" lon="6.905505"><ele>1144.5</ele><time>2026-07-01T07:35:20Z</time></trkpt>
    <trkpt lat="45.959682" lon="6.905652"><ele>1144.1</ele><time>2026-07-01T07:35:40Z</time></trkpt>
    <trkpt lat="45.959929" lon="6.905785"><ele>1145.7</ele><time>2026-07-01T07:36:00Z</time></trkpt>
    <trkpt lat="45.960189" lon="6.905905"><ele>1144.3</ele><time>2026-07-01T07:36:20Z</time></trkpt>
    <trkpt lat="45.960461" lon="6.906013"><ele>1149.7</ele><time>2026-07-01T07:36:40Z</time></trkpt>
    <trkpt lat="45.960743" lon="6.906111"><ele>1151.0</ele><time>2026-07-01T07:37:00Z</time></trkpt>
    <trkpt lat="45.961034" lon="6.906200"><ele>1147.4</ele><time>2026-07-01T07:37:20Z</time></trkpt>
    <trkpt lat="45.961332" lon="6.906281"><ele>1150.5</ele><time>2026-07-01T07:37:40Z</time></trkpt>
    <trkpt lat="45.961635" lon="6.906359"><ele>1150.0</ele><time>2026-07-01T07:38:00Z</time></trkpt>
    <trkpt lat="45.961940" lon="6.906434"><ele>1152.0</ele><time>2026-07-01T07:38:20Z</time></trkpt>
    <trkpt lat="45.962245" lon="6.906508"><ele>1151.1</ele><time>2026-07-01T07:38:40Z</time></trkpt>
    <trkpt lat="45.962548" lon="6.906585"><ele>1156.9</ele><time>2026-07-01T07:39:00Z</time></trkpt>
    <trkpt lat="45.962846" lon="6.906667"><ele>1153.6</ele><time>2026-07-01T07:39:20Z</time></trkpt>
    <trkpt lat="45.963137" lon="6.906756"><ele>1155.7</ele><time>2026-07-01T07:39:40Z</time></trkpt>
    <trkpt lat="45.963419" lon="6.906854"><ele>1157.9</ele><time>2026-07-01T07:40:00Z</time></trkpt>
    <trkpt lat="45.963689" lon="6.906963"><ele>1157.2</ele><time>2026-07-01T07:40:20Z</time></trkpt>
    <trkpt lat="45.963946" lon="6.907086"><ele>1158.8</ele><time>2026-07-01T07:40:40Z</time></trkpt>
    <trkpt lat="45.964188" lon="6.907224"><ele>1159.3</ele><time>2026-07-01T07:41:00Z</time></trkpt>
    <trkpt lat="45.964414" lon="6.907378"><ele>1161.0</ele><time>2026-07-01T07:41:20Z</time></trkpt>
    <trkpt lat="45.964621" lon="6.907550"><ele>1160.5</ele><time>2026-07-01T07:41:40Z</time></trkpt>
    <trkpt lat="45.964811" lon="6.907741"><ele>1162.6</ele><time>2026-07-01T07:42:00Z</time></trkpt>
    <trkpt lat="45.964981" lon="6.907950"><ele>1164.0</ele><time>2026-07-01T07:42:20Z</time></trkpt>
    <trkpt lat="45.965132" lon="6.908179"><ele>1164.8</ele><time>2026-07-01T07:42:40Z</time></trkpt>
    <trkpt lat="45.965265" lon="6.908427"><ele>1166.4</ele><time>2026-07-01T07:43:00Z</time></trkpt>
    <trkpt lat="45.965378" lon="6.908693"><ele>1166.9</ele><time>2026-07-01T07:43:20Z</time></trkpt>
    <trkpt lat="45.965475" lon="6.908977"><ele>1169.5</ele><time>2026-07-01T07:43:40Z</time></trkpt>
    <trkpt lat="45.965554" lon="6.909277"><ele>1168.9</ele><time>2026-07-01T07:44:00Z</time></trkpt>
    <trkpt lat="45.965619" lon="6.909592"><ele>1170.2</ele><time>2026-07-01T07:44:20Z</time></trkpt>
    <trkpt lat="45.965671" lon="6.909920"><ele>1170.4</ele><time>2026-07-01T07:44:40Z</time></trkpt>
    <trkpt lat="45.965711" lon="6.910259"><ele>1171.6</ele><time>2026-07-01T07:45:00Z</time></trkpt>
    <trkpt lat="45.965743" lon="6.910607"><ele>1171.6</ele><time>2026-07-01T07:45:20Z</time></trkpt>
    <trkpt lat="45.965769" lon="6.910962"><ele>1175.2</ele><time>2026-07-01T07:45:40Z</time></trkpt>
    <trkpt lat="45.965790" lon="6.911320"><ele>1173.8</ele><time>2026-07-01T07:46:00Z</time></trkpt>
    <trkpt lat="45.965810" lon="6.911680"><ele>1175.4</ele><time>2026-07-01T07:46:20Z</time></trkpt>
    <trkpt lat="45.965831" lon="6.912038"><ele>1178.1</ele><time>2026-07-01T07:46:40Z</time></trkpt>
    <trkpt lat="45.965857" lon="6.912393"><ele>1179.2</ele><time>2026-07-01T07:47:00Z</time></trkpt>
    <trkpt lat="45.965889" lon="6.912741"><ele>1179.0</ele><time>2026-07-01T07:47:20Z</time></trkpt>
    <trkpt lat="45.965929" lon="6.913080"><ele>1177.6</ele><time>2026-07-01T07:47:40Z</time></trkpt>
    <trkpt lat="45.965981" lon="6.913408"><ele>1182.2</ele><time>2026-07-01T07:48:00Z</time></trkpt>
    <trkpt lat="45.966046" lon="6.913723"><ele>1183.0</ele><time>2026-07-01T07:48:20Z</time></trkpt>
    <trkpt lat="45.966125" lon="6.914023"><ele>1181.5</ele><time>2026-07-01T07:48:40Z</time></trkpt>
    <trkpt lat="45.966222" lon="6.914307"><ele>1185.8</ele><time>2026-07-01T07:49:00Z</time></trkpt>
    <trkpt lat="45.966335" lon="6.914573"><ele>1184.6</ele><time>2026-07-01T07:49:20Z</time></trkpt>
    <trkpt lat="45.966468" lon="6.914821"><ele>1185.0</ele><time>2026-07-01T07:49:40Z</time></trkpt>
    <trkpt lat="45.966619" lon="6.915050"><ele>1187.9</ele><time>2026-07-01T07:50:00Z</time></trkpt>
    <trkpt lat="45.966789" lon="6.915259"><ele>1188.5</ele><time>2026-07-01T07:50:20Z</time></trkpt>
    <trkpt lat="45.966979" lon="6.915450"><ele>1190.1</ele><time>2026-07-01T07:50:40Z</time></trkpt>
    <trkpt lat="45.967186" lon="6.915622"><ele>1188.4</ele><time>2026-07-01T07:51:00Z</time></trkpt>
    <trkpt lat="45.967412" lon="6.915776"><ele>1194.5</ele><time>2026-07-01T07:51:20Z</time></trkpt>
    <trkpt lat="45.967654" lon="6.915914"><ele>1191.9</ele><time>2026-07-01T07:51:40Z</time></trkpt>
    <trkpt lat="45.967911" lon="6.916037"><ele>1191.5</ele><time>2026-07-01T07:52:00Z</time></trkpt>
    <trkpt lat="45.968181" lon="6.916146"><ele>1195.8</ele><time>2026-07-01T07:52:20Z</time></trkpt>
    <trkpt lat="45.968463" lon="6.916244"><ele>1195.4</ele><time>2026-07-01T07:52:40Z</time></trkpt>
    <trkpt lat="45.968754" lon="6.916333"><ele>1197.4</ele><time>2026-07-01T07:53:00Z</time></trkpt>
    <trkpt lat="45.969052" lon="6.916415"><ele>1197.4</ele><time>2026-07-01T07:53:20Z</time></trkpt>
    <trkpt lat="45.969355" lon="6.916492"><ele>1198.9</ele><time>2026-07-01T07:53:40Z</time></trkpt>
    <trkpt lat="45.969660" lon="6.916566"><ele>1200.3</ele><time>2026-07-01T07:54:00Z</time></trkpt>
    <trkpt lat="45.969965" lon="6.916641"><ele>1199.9</ele><time>2026-07-01T07:54:20Z</time></trkpt>
    <trkpt lat="45.970268" lon="6.916719"><ele>1203.0</ele><time>2026-07-01T07:54:40Z</time></trkpt>
    <trkpt lat="45.970566" lon="6.916800"><ele>1202.3</ele><time>2026-07-01T07:55:00Z</time></trkpt>
    <trkpt lat="45.970857" lon="6.916889"><ele>1202.7</ele><time>2026-07-01T07:55:20Z</time></trkpt>
    <trkpt lat="45.971139" lon="6.916987"><ele>1205.2</ele><time>2026-07-01T07:55:40Z</time></trkpt>
    <trkpt lat="45.971411" lon="6.917095"><ele>1206.8</ele><time>2026-07-01T07:56:00Z</time></trkpt>
    <trkpt lat="45.971671" lon="6.917215"><ele>1206.8</ele><time>2026-07-01T07:56:20Z</time></trkpt>
    <trkpt lat="45.971918" lon="6.917348"><ele>1206.8</ele><time>2026-07-01T07:56:40Z</time></trkpt>
    <trkpt lat="45.972150" lon="6.917495"><ele>1210.1</ele><time>2026-07-01T07:57:00Z</time></trkpt>
    <trkpt lat="45.972368" lon="6.917658"><ele>1207.5</ele><time>2026-07-01T07:57:20Z</time></trkpt>
    <trkpt lat="45.972570" lon="6.917835"><ele>1209.6</ele><time>2026-07-01T07:57:40Z</time></trkpt>
    <trkpt lat="45.972757" lon="6.918028"><ele>1212.3</ele><time>2026-07-01T07:58:00Z</time></trkpt>
    <trkpt lat="45.972929" lon="6.918236"><ele>1211.2</ele><time>2026-07-01T07:58:20Z</time></trkpt>
    <trkpt lat="45.973087" lon="6.918458"><ele>1214.3</ele><time>2026-07-01T07:58:40Z</time></trkpt>
    <trkpt lat="45.973230" lon="6.918694"><ele>1215.2</ele><time>2026-07-01T07:59:00Z</time></trkpt>
    <trkpt lat="45.973361" lon="6.918943"><ele>1217.6</ele><time>2026-07-01T07:59:20Z</time></trkpt>
    <trkpt lat="45.973481" lon="6.919203"><ele>1215.9</ele><time>2026-07-01T07:59:40Z</time></trkpt>
    <trkpt lat="45.973591" lon="6.919474"><ele>1217.4</ele><time>2026-07-01T08:00:00Z</time></trkpt>
    <trkpt lat="45.973692" lon="6.919752"><ele>1219.9</ele><time>2026-07-01T08:00:20Z</time></trkpt>
    <trkpt lat="45.973787" lon="6.920037"><ele>1216.7</ele><time>2026-07-01T08:00:40Z</time></trkpt>
    <trkpt lat="45.973877" lon="6.920327"><ele>1226.0</ele><time>2026-07-01T08:01:00Z</time></trkpt>
    <trkpt lat="45.973964" lon="6.920620"><ele>1221.4</ele><time>2026-07-01T08:01:20Z</time></trkpt>
    <trkpt lat="45.974050" lon="6.920914"><ele>1222.3</ele><time>2026-07-01T08:01:40Z</time></trkpt>
    <trkpt lat="45.974136" lon="6.921207"><ele>1225.7</ele><time>2026-07-01T08:02:00Z</time></trkpt>
    <trkpt lat="45.974225" lon="6.921499"><ele>1225.4</ele><time>2026-07-01T08:02:20Z</time></trkpt>
    <trkpt lat="45.974317" lon="6.921786"><ele>1223.8</ele><time>2026-07-01T08:02:40Z</time></trkpt>
    <trkpt lat="45.974415" lon="6.922068"><ele>1228.5</ele><time>2026-07-01T08:03:00Z</time></trkpt>
    <trkpt lat="45.974520" lon="6.922343"><ele>1229.8</ele><time>2026-07-01T08:03:20Z</time></trkpt>
    <trkpt lat="45.974632" lon="6.922611"><ele>1228.9</ele><time>2026-07-01T08:03:40Z</time></trkpt>
    <trkpt lat="45.974752" lon="6.922871"><ele>1230.2</ele><time>2026-07-01T08:04:00Z</time></trkpt>
    <trkpt lat="45.974882" lon="6.923121"><ele>1232.3</ele><time>2026-07-01T08:04:20Z</time></trkpt>
    <trkpt lat="45.975021" lon="6.923362"><ele>1231.3</ele><time>2026-07-01T08:04:40Z</time></trkpt>
    <trkpt lat="45.975169" lon="6.923593"><ele>1234.3</ele><time>2026-07-01T08:05:00Z</time></trkpt>
    <trkpt lat="45.975327" lon="6.923815"><ele>1235.0</ele><time>2026-07-01T08:05:20Z</time></trkpt>
    <trkpt lat="45.975494" lon="6.924028"><ele>1234.7</ele><time>2026-07-01T08:05:40Z</time></trkpt>
    <trkpt lat="45.975669" lon="6.924233"><ele>1234.6</ele><time>2026-07-01T08:06:00Z</time></trkpt>
    <trkpt lat="45.975853" lon="6.924429"><ele>1237.4</ele><time>2026-07-01T08:06:20Z</time></trkpt>
    <trkpt lat="45.976043" lon="6.924619"><ele>1237.4</ele><time>2026-07-01T08:06:40Z</time></trkpt>
    <trkpt lat="45.976238" lon="6.924803"><ele>1241.3</ele><time>2026-07-01T08:07:00Z</time></trkpt>
    <trkpt lat="45.976439" lon="6.924983"><ele>1241.0</ele><time>2026-07-01T08:07:20Z</time></trkpt>
    <trkpt lat="45.976642" lon="6.925159"><ele>1243.0</ele><time>2026-07-01T08:07:40Z</time></trkpt>
    <trkpt lat="45.976848" lon="6.925333"><ele>1243.0</ele><time>2026-07-01T08:08:00Z</time></trkpt>
    <trkpt lat="45.977055" lon="6.925506"><ele>1244.2</ele><time>2026-07-01T08:08:20Z</time></trkpt>
    <trkpt lat="45.977261" lon="6.925680"><ele>1243.7</ele><time>2026-07-01T08:08:40Z</time></trkpt>
    <trkpt lat="45.977465" lon="6.925856"><ele>1246.9</ele><time>2026-07-01T08:09:00Z</time></trkpt>
    <trkpt lat="45.977666" lon="6.926034"><ele>1249.6</ele><time>2026-07-01T08:09:20Z</time></trkpt>
    <trkpt lat="45.977864" lon="6.926217"><ele>1247.5</ele><time>2026-07-01T08:09:40Z</time></trkpt>
    <trkpt lat="45.978056" lon="6.926404"><ele>1248.1</ele><time>2026-07-01T08:10:00Z</time></trkpt>
    <trkpt lat="45.978244" lon="6.926597"><ele>1249.7</ele><time>2026-07-01T08:10:20Z</time></trkpt>
    <trkpt lat="45.978425" lon="6.926795"><ele>1250.3</ele><time>2026-07-01T08:10:40Z</time></trkpt>
    <trkpt lat="45.978600" lon="6.927000"><ele>1250.9</ele><time>2026-07-01T08:11:00Z</time></trkpt>
    <trkpt lat="45.978792" lon="6.927178"><ele>1253.9</ele><time>2026-07-01T08:11:20Z</time></trkpt>
    <trkpt lat="45.978993" lon="6.927347"><ele>1254.9</ele><time>2026-07-01T08:11:40Z</time></trkpt>
    <trkpt lat="45.979203" lon="6.927507"><ele>1259.2</ele><time>2026-07-01T08:12:00Z</time></trkpt>
    <trkpt lat="45.979420" lon="6.927660"><ele>1258.7</ele><time>2026-07-01T08:12:20Z</time></trkpt>
    <trkpt lat="45.979644" lon="6.927806"><ele>1260.9</ele><time>2026-07-01T08:12:40Z</time></trkpt>
    <trkpt lat="45.979872" lon="6.927948"><ele>1263.5</ele><time>2026-07-01T08:13:00Z</time></trkpt>
    <trkpt lat="45.980102" lon="6.928088"><ele>1263.3</ele><time>2026-07-01T08:13:20Z</time></trkpt>
    <trkpt lat="45.980331" lon="6.928229"><ele>1267.6</ele><time>2026-07-01T08:13:40Z</time></trkpt>
    <trkpt lat="45.980557" lon="6.928373"><ele>1266.1</ele><time>2026-07-01T08:14:00Z</time></trkpt>
    <trkpt lat="45.980777" lon="6.928523"><ele>1267.5</ele><time>2026-07-01T08:14:20Z</time></trkpt>
    <trkpt lat="45.980990" lon="6.928680"><ele>1269.9</ele><time>2026-07-01T08:14:40Z</time></trkpt>
    <trkpt lat="45.981193" lon="6.928847"><ele>1271.9</ele><time>2026-07-01T08:15:00Z</time></trkpt>
    <trkpt lat="45.981384" lon="6.929026"><ele>1271.7</ele><time>2026-07-01T08:15:20Z</time></trkpt>
    <trkpt lat="45.981561" lon="6.929219"><ele>1275.4</ele><time>2026-07-01T08:15:40Z</time></trkpt>
    <trkpt lat="45.981725" lon="6.929425"><ele>1274.6</ele><time>2026-07-01T08:16:00Z</time></trkpt>
    <trkpt lat="45.981874" lon="6.929646"><ele>1280.9</ele><time>2026-07-01T08:16:20Z</time></trkpt>
    <trkpt lat="45.982008" lon="6.929882"><ele>1280.4</ele><time>2026-07-01T08:16:40Z</time></trkpt>
    <trkpt lat="45.982128" lon="6.930132"><ele>1281.2</ele><time>2026-07-01T08:17:00Z</time></trkpt>
    <trkpt lat="45.982236" lon="6.930394"><ele>1282.5</ele><time>2026-07-01T08:17:20Z</time></trkpt>
    <trkpt lat="45.982333" lon="6.930667"><ele>1284.9</ele><time>2026-07-01T08:17:40Z</time></trkpt>
    <trkpt lat="45.982422" lon="6.930948"><ele>1286.8</ele><time>2026-07-01T08:18:00Z</time></trkpt>
    <trkpt lat="45.982505" lon="6.931235"><ele>1287.3</ele><time>2026-07-01T08:18:20Z</time></trkpt>
    <trkpt lat="45.982585" lon="6.931525"><ele>1289.1</ele><time>2026-07-01T08:18:40Z</time></trkpt>
    <trkpt lat="45.982665" lon="6.931815"><ele>1291.9</ele><time>2026-07-01T08:19:00Z</time></trkpt>
    <trkpt lat="45.982750" lon="6.932100"><ele>1293.1</ele><time>2026-07-01T08:19:20Z</time></trkpt>
    <trkpt lat="45.982842" lon="6.932378"><ele>1297.0</ele><time>2026-07-01T08:19:40Z</time></trkpt>
    <trkpt lat="45.982946" lon="6.932644"><ele>1298.9</ele><time>2026-07-01T08:20:00Z</time></trkpt>
    <trkpt lat="45.983063" lon="6.932897"><ele>1298.9</ele><time>2026-07-01T08:20:20Z</time></trkpt>
    <trkpt lat="45.983197" lon="6.933133"><ele>1301.3</ele><time>2026-07-01T08:20:40Z</time></trkpt>
    <trkpt lat="45.983351" lon="6.933349"><ele>1300.2</ele><time>2026-07-01T08:21:00Z</time></trkpt>
    <trkpt lat="45.983527" lon="6.933543"><ele>1304.9</ele><time>2026-07-01T08:21:20Z</time></trkpt>
    <trkpt lat="45.983725" lon="6.933715"><ele>1305.6</ele><time>2026-07-01T08:21:40Z</time></trkpt>
    <trkpt lat="45.983947" lon="6.933863"><ele>1308.0</ele><time>2026-07-01T08:22:00Z</time></trkpt>
    <trkpt lat="45.984192" lon="6.933988"><ele>1311.4</ele><time>2026-07-01T08:22:20Z</time></trkpt>
    <trkpt lat="45.984460" lon="6.934090"><ele>1307.2</ele><time>2026-07-01T08:22:40Z</time></trkpt>
    <trkpt lat="45.984749" lon="6.934171"><ele>1312.7</ele><time>2026-07-01T08:23:00Z</time></trkpt>
    <trkpt lat="45.985058" lon="6.934232"><ele>1312.3</ele><time>2026-07-01T08:23:20Z</time></trkpt>
    <trkpt lat="45.985382" lon="6.934278"><ele>1316.5</ele><time>2026-07-01T08:23:40Z</time></trkpt>
    <trkpt lat="45.985720" lon="6.934310"><ele>1315.4</ele><time>2026-07-01T08:24:00Z</time></trkpt>
    <trkpt lat="45.986067" lon="6.934333"><ele>1318.3</ele><time>2026-07-01T08:24:20Z</time></trkpt>
    <trkpt lat="45.986418" lon="6.934352"><ele>1321.0</ele><time>2026-07-01T08:24:40Z</time></trkpt>
    <trkpt lat="45.986770" lon="6.934370"><ele>1323.3</ele><time>2026-07-01T08:25:00Z</time></trkpt>
    <trkpt lat="45.987118" lon="6.934392"><ele>1324.1</ele><time>2026-07-01T08:25:20Z</time></trkpt>
    <trkpt lat="45.987458" lon="6.934422"><ele>1324.5</ele><time>2026-07-01T08:25:40Z</time></trkpt>
    <trkpt lat="45.987784" lon="6.934466"><ele>1326.5</ele><time>2026-07-01T08:26:00Z</time></trkpt>
    <trkpt lat="45.988093" lon="6.934527"><ele>1330.4</ele><time>2026-07-01T08:26:20Z</time></trkpt>
    <trkpt lat="45.988381" lon="6.934609"><ele>1330.7</ele><time>2026-07-01T08:26:40Z</time></trkpt>
    <trkpt lat="45.988645" lon="6.934715"><ele>1329.9</ele><time>2026-07-01T08:27:00Z</time></trkpt>
    <trkpt lat="45.988883" lon="6.934847"><ele>1335.3</ele><time>2026-07-01T08:27:20Z</time></trkpt>
    <trkpt lat="45.989092" lon="6.935008"><ele>1336.4</ele><time>2026-07-01T08:27:40Z</time></trkpt>
    <trkpt lat="45.989272" lon="6.935198"><ele>1338.7</ele><time>2026-07-01T08:28:00Z</time></trkpt>
    <trkpt lat="45.989423" lon="6.935417"><ele>1338.6</ele><time>2026-07-01T08:28:20Z</time></trkpt>
    <trkpt lat="45.989545" lon="6.935665"><ele>1342.0</ele><time>2026-07-01T08:28:40Z</time></trkpt>
    <trkpt lat="45.989639" lon="6.935941"><ele>1340.9</ele><time>2026-07-01T08:29:00Z</time></trkpt>
    <trkpt lat="45.989708" lon="6.936242"><ele>1345.0</ele><time>2026-07-01T08:29:20Z</time></trkpt>
    <trkpt lat="45.989755" lon="6.936565"><ele>1345.1</ele><time>2026-07-01T08:29:40Z</time></trkpt>
    <trkpt lat="45.989783" lon="6.936907"><ele>1348.5</ele><time>2026-07-01T08:30:00Z</time></trkpt>
    <trkpt lat="45.989797" lon="6.937263"><ele>1350.7</ele><time>2026-07-01T08:30:20Z</time></trkpt>
    <trkpt lat="45.989801" lon="6.937629"><ele>1349.7</ele><time>2026-07-01T08:30:40Z</time></trkpt>
    <trkpt lat="45.989800" lon="6.938000"><ele>1352.4</ele><time>2026-07-01T08:31:00Z</time></trkpt>
    <trkpt lat="45.989799" lon="6.938371"><ele>1354.2</ele><time>2026-07-01T08:31:20Z</time></trkpt>
    <trkpt lat="45.989803" lon="6.938737"><ele>1357.6</ele><time>2026-07-01T08:31:40Z</time></trkpt>
    <trkpt lat="45.989817" lon="6.939093"><ele>1358.6</ele><time>2026-07-01T08:32:00Z</time></trkpt>
    <trkpt lat="45.989845" lon="6.939435"><ele>1357.4</ele><time>2026-07-01T08:32:20Z</time></trkpt>
    <trkpt lat="45.989892" lon="6.939758"><ele>1361.6</ele><time>2026-07-01T08:32:40Z</time></trkpt>
    <trkpt lat="45.989961" lon="6.940059"><ele>1363.7</ele><time>2026-07-01T08:33:00Z</time></trkpt>
    <trkpt lat="45.990055" lon="6.940335"><ele>1367.4</ele><time>2026-07-01T08:33:20Z</time></trkpt>
    <trkpt lat="45.990177" lon="6.940583"><ele>1363.4</ele><time>2026-07-01T08:33:40Z</time></trkpt>
    <trkpt lat="45.990328" lon="6.940802"><ele>1366.8</ele><time>2026-07-01T08:34:00Z</time></trkpt>
    <trkpt lat="45.990508" lon="6.940992"><ele>1371.3</ele><time>2026-07-01T08:34:20Z</time></trkpt>
    <trkpt lat="45.990717" lon="6.941153"><ele>1368.9</ele><time>2026-07-01T08:34:40Z</time></trkpt>
    <trkpt lat="45.990955" lon="6.941285"><ele>1370.8</ele><time>2026-07-01T08:35:00Z</time></trkpt>
    <trkpt lat="45.991219" lon="6.941391"><ele>1375.1</ele><time>2026-07-01T08:35:20Z</time></trkpt>
    <trkpt lat="45.991507" lon="6.941473"><ele>1377.5</ele><time>2026-07-01T08:35:40Z</time></trkpt>
    <trkpt lat="45.991816" lon="6.941534"><ele>1376.6</ele><time>2026-07-01T08:36:00Z</time></trkpt>
    <trkpt lat="45.992142" lon="6.941578"><ele>1380.1</ele><time>2026-07-01T08:36:20Z</time></trkpt>
    <trkpt lat="45.992482" lon="6.941608"><ele>1381.2</ele><time>2026-07-01T08:36:40Z</time></trkpt>
    <trkpt lat="45.992830" lon="6.941630"><ele>1384.9</ele><time>2026-07-01T08:37:00Z</time></trkpt>
    <trkpt lat="45.993182" lon="6.941648"><ele>1384.3</ele><time>2026-07-01T08:37:20Z</time></trkpt>
    <trkpt lat="45.993533" lon="6.941667"><ele>1387.5</ele><time>2026-07-01T08:37:40Z</time></trkpt>
    <trkpt lat="45.993880" lon="6.941690"><ele>1386.3</ele><time>2026-07-01T08:38:00Z</time></trkpt>
    <trkpt lat="45.994218" lon="6.941722"><ele>1389.1</ele><time>2026-07-01T08:38:20Z</time></trkpt>
    <trkpt lat="45.994542" lon="6.941768"><ele>1390.9</ele><time>2026-07-01T08:38:40Z</time></trkpt>
    <trkpt lat="45.994851" lon="6.941829"><ele>1394.4</ele><time>2026-07-01T08:39:00Z</time></trkpt>
    <trkpt lat="45.995140" lon="6.941910"><ele>1395.2</ele><time>2026-07-01T08:39:20Z</time></trkpt>
    <trkpt lat="45.995408" lon="6.942012"><ele>1394.9</ele><time>2026-07-01T08:39:40Z</time></trkpt>
    <trkpt lat="45.995653" lon="6.942137"><ele>1398.7</ele><time>2026-07-01T08:40:00Z</time></trkpt>
    <trkpt lat="45.995875" lon="6.942285"><ele>1400.6</ele><time>2026-07-01T08:40:20Z</time></trkpt>
    <trkpt lat="45.996073" lon="6.942457"><ele>1400.9</ele><time>2026-07-01T08:40:40Z</time></trkpt>
    <trkpt lat="45.996249" lon="6.942651"><ele>1402.4</ele><time>2026-07-01T08:41:00Z</time></trkpt>
    <trkpt lat="45.996403" lon="6.942867"><ele>1404.1</ele><time>2026-07-01T08:41:20Z</time></trkpt>
    <trkpt lat="45.996537" lon="6.943103"><ele>1403.6</ele><time>2026-07-01T08:41:40Z</time></trkpt>
    <trkpt lat="45.996654" lon="6.943356"><ele>1408.1</ele><time>2026-07-01T08:42:00Z</time></trkpt>
    <trkpt lat="45.996758" lon="6.943622"><ele>1409.8</ele><time>2026-07-01T08:42:20Z</time></trkpt>
    <trkpt lat="45.996850" lon="6.943900"><ele>1409.8</ele><time>2026-07-01T08:42:40Z</time></trkpt>
    <trkpt lat="45.996935" lon="6.944185"><ele>1413.9</ele><time>2026-07-01T08:43:00Z</time></trkpt>
    <trkpt lat="45.997015" lon="6.944475"><ele>1412.4</ele><time>2026-07-01T08:43:20Z</time></trkpt>
    <trkpt lat="45.997095" lon="6.944765"><ele>1415.3</ele><time>2026-07-01T08:43:40Z</time></trkpt>
    <trkpt lat="45.997178" lon="6.945052"><ele>1417.1</ele><time>2026-07-01T08:44:00Z</time></trkpt>
    <trkpt lat="45.997267" lon="6.945333"><ele>1422.5</ele><time>2026-07-01T08:44:20Z</time></trkpt>
    <trkpt lat="45.997364" lon="6.945606"><ele>1418.8</ele><time>2026-07-01T08:44:40Z</time></trkpt>
    <trkpt lat="45.997472" lon="6.945868"><ele>1423.7</ele><time>2026-07-01T08:45:00Z</time></trkpt>
    <trkpt lat="45.997592" lon="6.946118"><ele>1425.9</ele><time>2026-07-01T08:45:20Z</time></trkpt>
    <trkpt lat="45.997726" lon="6.946354"><ele>1426.8</ele><time>2026-07-01T08:45:40Z</time></trkpt>
    <trkpt lat="45.997875" lon="6.946575"><ele>1429.6</ele><time>2026-07-01T08:46:00Z</time></trkpt>
    <trkpt lat="45.998039" lon="6.946781"><ele>1428.0</ele><time>2026-07-01T08:46:20Z</time></trkpt>
    <trkpt lat="45.998216" lon="6.946974"><ele>1427.8</ele><time>2026-07-01T08:46:40Z</time></trkpt>
    <trkpt lat="45.998407" lon="6.947153"><ele>1434.1</ele><time>2026-07-01T08:47:00Z</time></trkpt>
    <trkpt lat="45.998610" lon="6.947320"><ele>1432.8</ele><time>2026-07-01T08:47:20Z</time></trkpt>
    <trkpt lat="45.998823" lon="6.947477"><ele>1435.8</ele><time>2026-07-01T08:47:40Z</time></trkpt>
    <trkpt lat="45.999043" lon="6.947627"><ele>1436.2</ele><time>2026-07-01T08:48:00Z</time></trkpt>
    <trkpt lat="45.999269" lon="6.947771"><ele>1441.2</ele><time>2026-07-01T08:48:20Z</time></trkpt>
    <trkpt lat="45.999498" lon="6.947912"><ele>1442.6</ele><time>2026-07-01T08:48:40Z</time></trkpt>
    <trkpt lat="45.999728" lon="6.948052"><ele>1441.9</ele><time>2026-07-01T08:49:00Z</time></trkpt>
    <trkpt lat="45.999956" lon="6.948194"><ele>1446.0</ele><time>2026-07-01T08:49:20Z</time></trkpt>
    <trkpt lat="46.000180" lon="6.948340"><ele>1446.5</ele><time>2026-07-01T08:49:40Z</time></trkpt>
    <trkpt lat="46.000397" lon="6.948493"><ele>1447.8</ele><time>2026-07-01T08:50:00Z</time></trkpt>
    <trkpt lat="46.000607" lon="6.948653"><ele>1449.7</ele><time>2026-07-01T08:50:20Z</time></trkpt>
    <trkpt lat="46.000808" lon="6.948822"><ele>1451.0</ele><time>2026-07-01T08:50:40Z</time></trkpt>
    <trkpt lat="46.001000" lon="6.949000"><ele>1453.9</ele><time>2026-07-01T08:51:00Z</time></trkpt>
    <trkpt lat="46.001222" lon="6.949080"><ele>1459.5</ele><time>2026-07-01T08:51:20Z</time></trkpt>
    <trkpt lat="46.001453" lon="6.949152"><ele>1464.6</ele><time>2026-07-01T08:51:40Z</time></trkpt>
    <trkpt lat="46.001693" lon="6.949214"><ele>1472.7</ele><time>2026-07-01T08:52:00Z</time></trkpt>
    <trkpt lat="46.001940" lon="6.949269"><ele>1476.3</ele><time>2026-07-01T08:52:20Z</time></trkpt>
    <trkpt lat="46.002194" lon="6.949319"><ele>1483.7</ele><time>2026-07-01T08:52:40Z</time></trkpt>
    <trkpt lat="46.002451" lon="6.949364"><ele>1489.9</ele><time>2026-07-01T08:53:00Z</time></trkpt>
    <trkpt lat="46.002710" lon="6.949407"><ele>1497.6</ele><time>2026-07-01T08:53:20Z</time></trkpt>
    <trkpt lat="46.002970" lon="6.949450"><ele>1500.6</ele><time>2026-07-01T08:53:40Z</time></trkpt>
    <trkpt lat="46.003226" lon="6.949496"><ele>1510.1</ele><time>2026-07-01T08:54:00Z</time></trkpt>
    <trkpt lat="46.003478" lon="6.949547"><ele>1513.8</ele><time>2026-07-01T08:54:20Z</time></trkpt>
    <trkpt lat="46.003722" lon="6.949605"><ele>1519.3</ele><time>2026-07-01T08:54:40Z</time></trkpt>
    <trkpt lat="46.003957" lon="6.949673"><ele>1524.6</ele><time>2026-07-01T08:55:00Z</time></trkpt>
    <trkpt lat="46.004181" lon="6.949751"><ele>1532.5</ele><time>2026-07-01T08:55:20Z</time></trkpt>
    <trkpt lat="46.004392" lon="6.949842"><ele>1537.8</ele><time>2026-07-01T08:55:40Z</time></trkpt>
    <trkpt lat="46.004590" lon="6.949947"><ele>1542.1</ele><time>2026-07-01T08:56:00Z</time></trkpt>
    <trkpt lat="46.004774" lon="6.950066"><ele>1548.1</ele><time>2026-07-01T08:56:20Z</time></trkpt>
    <trkpt lat="46.004943" lon="6.950199"><ele>1555.0</ele><time>2026-07-01T08:56:40Z</time></trkpt>
    <trkpt lat="46.005099" lon="6.950345"><ele>1560.9</ele><time>2026-07-01T08:57:00Z</time></trkpt>
    <trkpt lat="46.005242" lon="6.950504"><ele>1569.6</ele><time>2026-07-01T08:57:20Z</time></trkpt>
    <trkpt lat="46.005375" lon="6.950674"><ele>1576.0</ele><time>2026-07-01T08:57:40Z</time></trkpt>
    <trkpt lat="46.005498" lon="6.950854"><ele>1581.3</ele><time>2026-07-01T08:58:00Z</time></trkpt>
    <trkpt lat="46.005615" lon="6.951039"><ele>1586.6</ele><time>2026-07-01T08:58:20Z</time></trkpt>
    <trkpt lat="46.005728" lon="6.951229"><ele>1591.5</ele><time>2026-07-01T08:58:40Z</time></trkpt>
    <trkpt lat="46.005840" lon="6.951419"><ele>1598.3</ele><time>2026-07-01T08:59:00Z</time></trkpt>
    <trkpt lat="46.005955" lon="6.951607"><ele>1605.6</ele><time>2026-07-01T08:59:20Z</time></trkpt>
    <trkpt lat="46.006076" lon="6.951788"><ele>1613.5</ele><time>2026-07-01T08:59:40Z</time></trkpt>
    <trkpt lat="46.006206" lon="6.951961"><ele>1617.7</ele><time>2026-07-01T09:00:00Z</time></trkpt>
    <trkpt lat="46.006348" lon="6.952121"><ele>1622.0</ele><time>2026-07-01T09:00:20Z</time></trkpt>
    <trkpt lat="46.006506" lon="6.952265"><ele>1628.5</ele><time>2026-07-01T09:00:40Z</time></trkpt>
    <trkpt lat="46.006681" lon="6.952392"><ele>1633.8</ele><time>2026-07-01T09:01:00Z</time></trkpt>
    <trkpt lat="46.006877" lon="6.952499"><ele>1639.4</ele><time>2026-07-01T09:01:20Z</time></trkpt>
    <trkpt lat="46.007094" lon="6.952585"><ele>1646.3</ele><time>2026-07-01T09:01:40Z</time></trkpt>
    <trkpt lat="46.007333" lon="6.952648"><ele>1652.9</ele><time>2026-07-01T09:02:00Z</time></trkpt>
    <trkpt lat="46.007595" lon="6.952688"><ele>1661.4</ele><time>2026-07-01T09:02:20Z</time></trkpt>
    <trkpt lat="46.007880" lon="6.952706"><ele>1664.8</ele><time>2026-07-01T09:02:40Z</time></trkpt>
    <trkpt lat="46.008186" lon="6.952702"><ele>1672.8</ele><time>2026-07-01T09:03:00Z</time></trkpt>
    <trkpt lat="46.008512" lon="6.952679"><ele>1679.5</ele><time>2026-07-01T09:03:20Z</time></trkpt>
    <trkpt lat="46.008855" lon="6.952638"><ele>1683.0</ele><time>2026-07-01T09:03:40Z</time></trkpt>
    <trkpt lat="46.009213" lon="6.952582"><ele>1691.3</ele><time>2026-07-01T09:04:00Z</time></trkpt>
    <trkpt lat="46.009583" lon="6.952516"><ele>1696.0</ele><time>2026-07-01T09:04:20Z</time></trkpt>
    <trkpt lat="46.009959" lon="6.952441"><ele>1700.4</ele><time>2026-07-01T09:04:40Z</time></trkpt>
    <trkpt lat="46.010340" lon="6.952364"><ele>1707.5</ele><time>2026-07-01T09:05:00Z</time></trkpt>
    <trkpt lat="46.010719" lon="6.952287"><ele>1713.1</ele><time>2026-07-01T09:05:20Z</time></trkpt>
    <trkpt lat="46.011093" lon="6.952215"><ele>1718.8</ele><time>2026-07-01T09:05:40Z</time></trkpt>
    <trkpt lat="46.011457" lon="6.952154"><ele>1724.9</ele><time>2026-07-01T09:06:00Z</time></trkpt>
    <trkpt lat="46.011808" lon="6.952106"><ele>1731.5</ele><time>2026-07-01T09:06:20Z</time></trkpt>
    <trkpt lat="46.012141" lon="6.952075"><ele>1738.0</ele><time>2026-07-01T09:06:40Z</time></trkpt>
    <trkpt lat="46.012453" lon="6.952065"><ele>1742.0</ele><time>2026-07-01T09:07:00Z</time></trkpt>
    <trkpt lat="46.012741" lon="6.952079"><ele>1749.4</ele><time>2026-07-01T09:07:20Z</time></trkpt>
    <trkpt lat="46.013003" lon="6.952120"><ele>1753.2</ele><time>2026-07-01T09:07:40Z</time></trkpt>
    <trkpt lat="46.013238" lon="6.952187"><ele>1761.9</ele><time>2026-07-01T09:08:00Z</time></trkpt>
    <trkpt lat="46.013444" lon="6.952284"><ele>1768.5</ele><time>2026-07-01T09:08:20Z</time></trkpt>
    <trkpt lat="46.013622" lon="6.952409"><ele>1773.9</ele><time>2026-07-01T09:08:40Z</time></trkpt>
    <trkpt lat="46.013772" lon="6.952561"><ele>1780.1</ele><time>2026-07-01T09:09:00Z</time></trkpt>
    <trkpt lat="46.013895" lon="6.952740"><ele>1786.6</ele><time>2026-07-01T09:09:20Z</time></trkpt>
    <trkpt lat="46.013995" lon="6.952943"><ele>1790.8</ele><time>2026-07-01T09:09:40Z</time></trkpt>
    <trkpt lat="46.014073" lon="6.953167"><ele>1797.4</ele><time>2026-07-01T09:10:00Z</time></trkpt>
    <trkpt lat="46.014133" lon="6.953409"><ele>1804.6</ele><time>2026-07-01T09:10:20Z</time></trkpt>
    <trkpt lat="46.014180" lon="6.953665"><ele>1811.4</ele><time>2026-07-01T09:10:40Z</time></trkpt>
    <trkpt lat="46.014217" lon="6.953930"><ele>1816.5</ele><time>2026-07-01T09:11:00Z</time></trkpt>
    <trkpt lat="46.014250" lon="6.954200"><ele>1825.8</ele><time>2026-07-01T09:11:20Z</time></trkpt>
    <trkpt lat="46.014283" lon="6.954470"><ele>1827.9</ele><time>2026-07-01T09:11:40Z</time></trkpt>
    <trkpt lat="46.014320" lon="6.954735"><ele>1835.6</ele><time>2026-07-01T09:12:00Z</time></trkpt>
    <trkpt lat="46.014367" lon="6.954991"><ele>1842.0</ele><time>2026-07-01T09:12:20Z</time></trkpt>
    <trkpt lat="46.014427" lon="6.955233"><ele>1846.0</ele><time>2026-07-01T09:12:40Z</time></trkpt>
    <trkpt lat="46.014505" lon="6.955457"><ele>1851.0</ele><time>2026-07-01T09:13:00Z</time></trkpt>
    <trkpt lat="46.014605" lon="6.955660"><ele>1856.5</ele><time>2026-07-01T09:13:20Z</time></trkpt>
    <trkpt lat="46.014728" lon="6.955839"><ele>1864.6</ele><time>2026-07-01T09:13:40Z</time></trkpt>
    <trkpt lat="46.014878" lon="6.955991"><ele>1872.1</ele><time>2026-07-01T09:14:00Z</time></trkpt>
    <trkpt lat="46.015056" lon="6.956116"><ele>1876.9</ele><time>2026-07-01T09:14:20Z</time></trkpt>
    <trkpt lat="46.015262" lon="6.956213"><ele>1882.8</ele><time>2026-07-01T09:14:40Z</time></trkpt>
    <trkpt lat="46.015497" lon="6.956280"><ele>1888.0</ele><time>2026-07-01T09:15:00Z</time></trkpt>
    <trkpt lat="46.015759" lon="6.956321"><ele>1895.4</ele><time>2026-07-01T09:15:20Z</time></trkpt>
    <trkpt lat="46.016047" lon="6.956335"><ele>1897.4</ele><time>2026-07-01T09:15:40Z</time></trkpt>
    <trkpt lat="46.016359" lon="6.956325"><ele>1907.0</ele><time>2026-07-01T09:16:00Z</time></trkpt>
    <trkpt lat="46.016692" lon="6.956294"><ele>1912.8</ele><time>2026-07-01T09:16:20Z</time></trkpt>
    <trkpt lat="46.017043" lon="6.956246"><ele>1916.7</ele><time>2026-07-01T09:16:40Z</time></trkpt>
    <trkpt lat="46.017407" lon="6.956185"><ele>1928.1</ele><time>2026-07-01T09:17:00Z</time></trkpt>
    <trkpt lat="46.017781" lon="6.956113"><ele>1928.8</ele><time>2026-07-01T09:17:20Z</time></trkpt>
    <trkpt lat="46.018160" lon="6.956036"><ele>1935.3</ele><time>2026-07-01T09:17:40Z</time></trkpt>
    <trkpt lat="46.018541" lon="6.955959"><ele>1941.2</ele><time>2026-07-01T09:18:00Z</time></trkpt>
    <trkpt lat="46.018917" lon="6.955884"><ele>1950.7</ele><time>2026-07-01T09:18:20Z</time></trkpt>
    <trkpt lat="46.019287" lon="6.955818"><ele>1953.7</ele><time>2026-07-01T09:18:40Z</time></trkpt>
    <trkpt lat="46.019645" lon="6.955762"><ele>1962.1</ele><time>2026-07-01T09:19:00Z</time></trkpt>
    <trkpt lat="46.019988" lon="6.955721"><ele>1968.1</ele><time>2026-07-01T09:19:20Z</time></trkpt>
    <trkpt lat="46.020314" lon="6.955698"><ele>1973.6</ele><time>2026-07-01T09:19:40Z</time></trkpt>
    <trkpt lat="46.020620" lon="6.955694"><ele>1977.3</ele><time>2026-07-01T09:20:00Z</time></trkpt>
    <trkpt lat="46.020905" lon="6.955712"><ele>1984.4</ele><time>2026-07-01T09:20:20Z</time></trkpt>
    <trkpt lat="46.021167" lon="6.955752"><ele>1993.9</ele><time>2026-07-01T09:20:40Z</time></trkpt>
    <trkpt lat="46.021406" lon="6.955815"><ele>1995.5</ele><time>2026-07-01T09:21:00Z</time></trkpt>
    <trkpt lat="46.021623" lon="6.955901"><ele>2002.2</ele><time>2026-07-01T09:21:20Z</time></trkpt>
    <trkpt lat="46.021819" lon="6.956008"><ele>2009.3</ele><time>2026-07-01T09:21:40Z</time></trkpt>
    <trkpt lat="46.021994" lon="6.956135"><ele>2016.8</ele><time>2026-07-01T09:22:00Z</time></trkpt>
    <trkpt lat="46.022152" lon="6.956279"><ele>2022.0</ele><time>2026-07-01T09:22:20Z</time></trkpt>
    <trkpt lat="46.022294" lon="6.956439"><ele>2028.8</ele><time>2026-07-01T09:22:40Z</time></trkpt>
    <trkpt lat="46.022424" lon="6.956612"><ele>2032.1</ele><time>2026-07-01T09:23:00Z</time></trkpt>
    <trkpt lat="46.022545" lon="6.956793"><ele>2041.2</ele><time>2026-07-01T09:23:20Z</time></trkpt>
    <trkpt lat="46.022660" lon="6.956981"><ele>2046.7</ele><time>2026-07-01T09:23:40Z</time></trkpt>
    <trkpt lat="46.022772" lon="6.957171"><ele>2049.5</ele><time>2026-07-01T09:24:00Z</time></trkpt>
    <trkpt lat="46.022885" lon="6.957361"><ele>2060.2</ele><time>2026-07-01T09:24:20Z</time></trkpt>
    <trkpt lat="46.023002" lon="6.957546"><ele>2067.4</ele><time>2026-07-01T09:24:40Z</time></trkpt>
    <trkpt lat="46.023125" lon="6.957726"><ele>2068.9</ele><time>2026-07-01T09:25:00Z</time></trkpt>
    <trkpt lat="46.023258" lon="6.957896"><ele>2076.1</ele><time>2026-07-01T09:25:20Z</time></trkpt>
    <trkpt lat="46.023401" lon="6.958055"><ele>2084.2</ele><time>2026-07-01T09:25:40Z</time></trkpt>
    <trkpt lat="46.023557" lon="6.958201"><ele>2085.9</ele><time>2026-07-01T09:26:00Z</time></trkpt>
    <trkpt lat="46.023726" lon="6.958334"><ele>2091.2</ele><time>2026-07-01T09:26:20Z</time></trkpt>
    <trkpt lat="46.023910" lon="6.958453"><ele>2098.3</ele><time>2026-07-01T09:26:40Z</time></trkpt>
    <trkpt lat="46.024108" lon="6.958558"><ele>2105.5</ele><time>2026-07-01T09:27:00Z</time></trkpt>
    <trkpt lat="46.024319" lon="6.958649"><ele>2111.5</ele><time>2026-07-01T09:27:20Z</time></trkpt>
    <trkpt lat="46.024543" lon="6.958727"><ele>2119.3</ele><time>2026-07-01T09:27:40Z</time></trkpt>
    <trkpt lat="46.024778" lon="6.958795"><ele>2124.9</ele><time>2026-07-01T09:28:00Z</time></trkpt>
    <trkpt lat="46.025022" lon="6.958853"><ele>2128.6</ele><time>2026-07-01T09:28:20Z</time></trkpt>
    <trkpt lat="46.025274" lon="6.958904"><ele>2137.4</ele><time>2026-07-01T09:28:40Z</time></trkpt>
    <trkpt lat="46.025530" lon="6.958950"><ele>2145.4</ele><time>2026-07-01T09:29:00Z</time></trkpt>
    <trkpt lat="46.025790" lon="6.958993"><ele>2150.5</ele><time>2026-07-01T09:29:20Z</time></trkpt>
    <trkpt lat="46.026049" lon="6.959036"><ele>2156.2</ele><time>2026-07-01T09:29:40Z</time></trkpt>
    <trkpt lat="46.026306" lon="6.959081"><ele>2160.8</ele><time>2026-07-01T09:30:00Z</time></trkpt>
    <trkpt lat="46.026560" lon="6.959131"><ele>2168.3</ele><time>2026-07-01T09:30:20Z</time></trkpt>
    <trkpt lat="46.026807" lon="6.959186"><ele>2171.4</ele><time>2026-07-01T09:30:40Z</time></trkpt>
    <trkpt lat="46.027047" lon="6.959248"><ele>2180.0</ele><time>2026-07-01T09:31:00Z</time></trkpt>
    <trkpt lat="46.027278" lon="6.959320"><ele>2184.8</ele><time>2026-07-01T09:31:20Z</time></trkpt>
    <trkpt lat="46.027500" lon="6.959400"><ele>2192.7</ele><time>2026-07-01T09:31:40Z</time></trkpt>
    <trkpt lat="46.027670" lon="6.959614"><ele>2188.5</ele><time>2026-07-01T09:32:00Z</time></trkpt>
    <trkpt lat="46.027851" lon="6.959817"><ele>2183.0</ele><time>2026-07-01T09:32:20Z</time></trkpt>
    <trkpt lat="46.028044" lon="6.960008"><ele>2181.6</ele><time>2026-07-01T09:32:40Z</time></trkpt>
    <trkpt lat="46.028245" lon="6.960191"><ele>2180.1</ele><time>2026-07-01T09:33:00Z</time></trkpt>
    <trkpt lat="46.028453" lon="6.960367"><ele>2173.4</ele><time>2026-07-01T09:33:20Z</time></trkpt>
    <trkpt lat="46.028664" lon="6.960540"><ele>2171.0</ele><time>2026-07-01T09:33:40Z</time></trkpt>
    <trkpt lat="46.028876" lon="6.960713"><ele>2167.5</ele><time>2026-07-01T09:34:00Z</time></trkpt>
    <trkpt lat="46.029084" lon="6.960889"><ele>2163.3</ele><time>2026-07-01T09:34:20Z</time></trkpt>
    <trkpt lat="46.029285" lon="6.961072"><ele>2163.8</ele><time>2026-07-01T09:34:40Z</time></trkpt>
    <trkpt lat="46.029476" lon="6.961265"><ele>2161.1</ele><time>2026-07-01T09:35:00Z</time></trkpt>
    <trkpt lat="46.029655" lon="6.961471"><ele>2157.1</ele><time>2026-07-01T09:35:20Z</time></trkpt>
    <trkpt lat="46.029817" lon="6.961692"><ele>2153.1</ele><time>2026-07-01T09:35:40Z</time></trkpt>
    <trkpt lat="46.029962" lon="6.961931"><ele>2149.5</ele><time>2026-07-01T09:36:00Z</time></trkpt>
    <trkpt lat="46.030089" lon="6.962188"><ele>2146.7</ele><time>2026-07-01T09:36:20Z</time></trkpt>
    <trkpt lat="46.030198" lon="6.962464"><ele>2142.1</ele><time>2026-07-01T09:36:40Z</time></trkpt>
    <trkpt lat="46.030289" lon="6.962757"><ele>2141.4</ele><time>2026-07-01T09:37:00Z</time></trkpt>
    <trkpt lat="46.030364" lon="6.963066"><ele>2138.4</ele><time>2026-07-01T09:37:20Z</time></trkpt>
    <trkpt lat="46.030426" lon="6.963388"><ele>2135.0</ele><time>2026-07-01T09:37:40Z</time></trkpt>
    <trkpt lat="46.030478" lon="6.963720"><ele>2129.7</ele><time>2026-07-01T09:38:00Z</time></trkpt>
    <trkpt lat="46.030523" lon="6.964059"><ele>2127.4</ele><time>2026-07-01T09:38:20Z</time></trkpt>
    <trkpt lat="46.030567" lon="6.964399"><ele>2123.8</ele><time>2026-07-01T09:38:40Z</time></trkpt>
    <trkpt lat="46.030614" lon="6.964736"><ele>2123.6</ele><time>2026-07-01T09:39:00Z</time></trkpt>
    <trkpt lat="46.030669" lon="6.965065"><ele>2118.0</ele><time>2026-07-01T09:39:20Z</time></trkpt>
    <trkpt lat="46.030737" lon="6.965381"><ele>2111.7</ele><time>2026-07-01T09:39:40Z</time></trkpt>
    <trkpt lat="46.030823" lon="6.965680"><ele>2111.9</ele><time>2026-07-01T09:40:00Z</time></trkpt>
    <trkpt lat="46.030930" lon="6.965957"><ele>2111.0</ele><time>2026-07-01T09:40:20Z</time></trkpt>
    <trkpt lat="46.031062" lon="6.966209"><ele>2106.0</ele><time>2026-07-01T09:40:40Z</time></trkpt>
    <trkpt lat="46.031222" lon="6.966434"><ele>2103.1</ele><time>2026-07-01T09:41:00Z</time></trkpt>
    <trkpt lat="46.031410" lon="6.966629"><ele>2098.6</ele><time>2026-07-01T09:41:20Z</time></trkpt>
    <trkpt lat="46.031629" lon="6.966795"><ele>2092.4</ele><time>2026-07-01T09:41:40Z</time></trkpt>
    <trkpt lat="46.031876" lon="6.966932"><ele>2089.5</ele><time>2026-07-01T09:42:00Z</time></trkpt>
    <trkpt lat="46.032151" lon="6.967041"><ele>2087.1</ele><time>2026-07-01T09:42:20Z</time></trkpt>
    <trkpt lat="46.032449" lon="6.967126"><ele>2085.6</ele><time>2026-07-01T09:42:40Z</time></trkpt>
    <trkpt lat="46.032769" lon="6.967191"><ele>2083.1</ele><time>2026-07-01T09:43:00Z</time></trkpt>
    <trkpt lat="46.033104" lon="6.967240"><ele>2080.5</ele><time>2026-07-01T09:43:20Z</time></trkpt>
    <trkpt lat="46.033449" lon="6.967279"><ele>2075.8</ele><time>2026-07-01T09:43:40Z</time></trkpt>
    <trkpt lat="46.033799" lon="6.967314"><ele>2074.5</ele><time>2026-07-01T09:44:00Z</time></trkpt>
    <trkpt lat="46.034146" lon="6.967351"><ele>2069.5</ele><time>2026-07-01T09:44:20Z</time></trkpt>
    <trkpt lat="46.034484" lon="6.967396"><ele>2065.7</ele><time>2026-07-01T09:44:40Z</time></trkpt>
    <trkpt lat="46.034807" lon="6.967457"><ele>2064.8</ele><time>2026-07-01T09:45:00Z</time></trkpt>
    <trkpt lat="46.035110" lon="6.967539"><ele>2059.0</ele><time>2026-07-01T09:45:20Z</time></trkpt>
    <trkpt lat="46.035386" lon="6.967647"><ele>2053.1</ele><time>2026-07-01T09:45:40Z</time></trkpt>
    <trkpt lat="46.035632" lon="6.967785"><ele>2052.4</ele><time>2026-07-01T09:46:00Z</time></trkpt>
    <trkpt lat="46.035844" lon="6.967957"><ele>2050.9</ele><time>2026-07-01T09:46:20Z</time></trkpt>
    <trkpt lat="46.036020" lon="6.968166"><ele>2043.0</ele><time>2026-07-01T09:46:40Z</time></trkpt>
    <trkpt lat="46.036158" lon="6.968411"><ele>2043.9</ele><time>2026-07-01T09:47:00Z</time></trkpt>
    <trkpt lat="46.036260" lon="6.968693"><ele>2040.7</ele><time>2026-07-01T09:47:20Z</time></trkpt>
    <trkpt lat="46.036327" lon="6.969011"><ele>2035.9</ele><time>2026-07-01T09:47:40Z</time></trkpt>
    <trkpt lat="46.036361" lon="6.969360"><ele>2032.6</ele><time>2026-07-01T09:48:00Z</time></trkpt>
    <trkpt lat="46.036368" lon="6.969738"><ele>2031.0</ele><time>2026-07-01T09:48:20Z</time></trkpt>
    <trkpt lat="46.036351" lon="6.970138"><ele>2027.6</ele><time>2026-07-01T09:48:40Z</time></trkpt>
    <trkpt lat="46.036318" lon="6.970556"><ele>2027.2</ele><time>2026-07-01T09:49:00Z</time></trkpt>
    <trkpt lat="46.036274" lon="6.970984"><ele>2022.7</ele><time>2026-07-01T09:49:20Z</time></trkpt>
    <trkpt lat="46.036226" lon="6.971416"><ele>2016.5</ele><time>2026-07-01T09:49:40Z</time></trkpt>
    <trkpt lat="46.036182" lon="6.971844"><ele>2014.4</ele><time>2026-07-01T09:50:00Z</time></trkpt>
    <trkpt lat="46.036149" lon="6.972262"><ele>2013.6</ele><time>2026-07-01T09:50:20Z</time></trkpt>
    <trkpt lat="46.036132" lon="6.972662"><ele>2012.2</ele><time>2026-07-01T09:50:40Z</time></trkpt>
    <trkpt lat="46.036139" lon="6.973040"><ele>2006.7</ele><time>2026-07-01T09:51:00Z</time></trkpt>
    <trkpt lat="46.036173" lon="6.973389"><ele>2003.4</ele><time>2026-07-01T09:51:20Z</time></trkpt>
    <trkpt lat="46.036240" lon="6.973707"><ele>2002.6</ele><time>2026-07-01T09:51:40Z</time></trkpt>
    <trkpt lat="46.036342" lon="6.973989"><ele>1996.6</ele><time>2026-07-01T09:52:00Z</time></trkpt>
    <trkpt lat="46.036480" lon="6.974234"><ele>1992.9</ele><time>2026-07-01T09:52:20Z</time></trkpt>
    <trkpt lat="46.036656" lon="6.974443"><ele>1988.1</ele><time>2026-07-01T09:52:40Z</time></trkpt>
    <trkpt lat="46.036868" lon="6.974615"><ele>1986.3</ele><time>2026-07-01T09:53:00Z</time></trkpt>
    <trkpt lat="46.037114" lon="6.974753"><ele>1987.1</ele><time>2026-07-01T09:53:20Z</time></trkpt>
    <trkpt lat="46.037390" lon="6.974861"><ele>1978.5</ele><time>2026-07-01T09:53:40Z</time></trkpt>
    <trkpt lat="46.037693" lon="6.974943"><ele>1977.5</ele><time>2026-07-01T09:54:00Z</time></trkpt>
    <trkpt lat="46.038016" lon="6.975004"><ele>1972.2</ele><time>2026-07-01T09:54:20Z</time></trkpt>
    <trkpt lat="46.038354" lon="6.975049"><ele>1971.3</ele><time>2026-07-01T09:54:40Z</time></trkpt>
    <trkpt lat="46.038701" lon="6.975086"><ele>1969.2</ele><time>2026-07-01T09:55:00Z</time></trkpt>
    <trkpt lat="46.039051" lon="6.975121"><ele>1964.4</ele><time>2026-07-01T09:55:20Z</time></trkpt>
    <trkpt lat="46.039396" lon="6.975160"><ele>1962.6</ele><time>2026-07-01T09:55:40Z</time></trkpt>
    <trkpt lat="46.039731" lon="6.975209"><ele>1959.4</ele><time>2026-07-01T09:56:00Z</time></trkpt>
    <trkpt lat="46.040051" lon="6.975274"><ele>1955.8</ele><time>2026-07-01T09:56:20Z</time></trkpt>
    <trkpt lat="46.040349" lon="6.975359"><ele>1954.6</ele><time>2026-07-01T09:56:40Z</time></trkpt>
    <trkpt lat="46.040624" lon="6.975468"><ele>1950.0</ele><time>2026-07-01T09:57:00Z</time></trkpt>
    <trkpt lat="46.040871" lon="6.975605"><ele>1945.2</ele><time>2026-07-01T09:57:20Z</time></trkpt>
    <trkpt lat="46.041090" lon="6.975771"><ele>1941.4</ele><time>2026-07-01T09:57:40Z</time></trkpt>
    <trkpt lat="46.041278" lon="6.975966"><ele>1938.0</ele><time>2026-07-01T09:58:00Z</time></trkpt>
    <trkpt lat="46.041438" lon="6.976191"><ele>1936.8</ele><time>2026-07-01T09:58:20Z</time></trkpt>
    <trkpt lat="46.041570" lon="6.976443"><ele>1932.4</ele><time>2026-07-01T09:58:40Z</time></trkpt>
    <trkpt lat="46.041677" lon="6.976720"><ele>1933.8</ele><time>2026-07-01T09:59:00Z</time></trkpt>
    <trkpt lat="46.041763" lon="6.977019"><ele>1929.2</ele><time>2026-07-01T09:59:20Z</time></trkpt>
    <trkpt lat="46.041831" lon="6.977335"><ele>1923.0</ele><time>2026-07-01T09:59:40Z</time></trkpt>
    <trkpt lat="46.041886" lon="6.977664"><ele>1919.6</ele><time>2026-07-01T10:00:00Z</time></trkpt>
    <trkpt lat="46.041933" lon="6.978001"><ele>1919.5</ele><time>2026-07-01T10:00:20Z</time></trkpt>
    <trkpt lat="46.041977" lon="6.978341"><ele>1910.9</ele><time>2026-07-01T10:00:40Z</time></trkpt>
    <trkpt lat="46.042022" lon="6.978680"><ele>1909.9</ele><time>2026-07-01T10:01:00Z</time></trkpt>
    <trkpt lat="46.042074" lon="6.979012"><ele>1908.8</ele><time>2026-07-01T10:01:20Z</time></trkpt>
    <trkpt lat="46.042136" lon="6.979334"><ele>1902.8</ele><time>2026-07-01T10:01:40Z</time></trkpt>
    <trkpt lat="46.042211" lon="6.979643"><ele>1900.3</ele><time>2026-07-01T10:02:00Z</time></trkpt>
    <trkpt lat="46.042302" lon="6.979936"><ele>1897.3</ele><time>2026-07-01T10:02:20Z</time></trkpt>
    <trkpt lat="46.042411" lon="6.980212"><ele>1895.6</ele><time>2026-07-01T10:02:40Z</time></trkpt>
    <trkpt lat="46.042538" lon="6.980469"><ele>1891.6</ele><time>2026-07-01T10:03:00Z</time></trkpt>
    <trkpt lat="46.042683" lon="6.980708"><ele>1888.8</ele><time>2026-07-01T10:03:20Z</time></trkpt>
    <trkpt lat="46.042845" lon="6.980929"><ele>1885.9</ele><time>2026-07-01T10:03:40Z</time></trkpt>
    <trkpt lat="46.043024" lon="6.981135"><ele>1881.9</ele><time>2026-07-01T10:04:00Z</time></trkpt>
    <trkpt lat="46.043215" lon="6.981328"><ele>1880.3</ele><time>2026-07-01T10:04:20Z</time></trkpt>
    <trkpt lat="46.043416" lon="6.981511"><ele>1874.4</ele><time>2026-07-01T10:04:40Z</time></trkpt>
    <trkpt lat="46.043624" lon="6.981687"><ele>1870.2</ele><time>2026-07-01T10:05:00Z</time></trkpt>
    <trkpt lat="46.043836" lon="6.981860"><ele>1866.5</ele><time>2026-07-01T10:05:20Z</time></trkpt>
    <trkpt lat="46.044047" lon="6.982033"><ele>1863.5</ele><time>2026-07-01T10:05:40Z</time></trkpt>
    <trkpt lat="46.044255" lon="6.982209"><ele>1861.9</ele><time>2026-07-01T10:06:00Z</time></trkpt>
    <trkpt lat="46.044456" lon="6.982392"><ele>1861.1</ele><time>2026-07-01T10:06:20Z</time></trkpt>
    <trkpt lat="46.044649" lon="6.982583"><ele>1856.6</ele><time>2026-07-01T10:06:40Z</time></trkpt>
    <trkpt lat="46.044830" lon="6.982786"><ele>1852.3</ele><time>2026-07-01T10:07:00Z</time></trkpt>
    <trkpt lat="46.045000" lon="6.983000"><ele>1848.4</ele><time>2026-07-01T10:07:20Z</time></trkpt>
    <trkpt lat="46.045155" lon="6.983240"><ele>1842.2</ele><time>2026-07-01T10:07:40Z</time></trkpt>
    <trkpt lat="46.045331" lon="6.983460"><ele>1835.3</ele><time>2026-07-01T10:08:00Z</time></trkpt>
    <trkpt lat="46.045523" lon="6.983662"><ele>1828.0</ele><time>2026-07-01T10:08:20Z</time></trkpt>
    <trkpt lat="46.045727" lon="6.983854"><ele>1819.7</ele><time>2026-07-01T10:08:40Z</time></trkpt>
    <trkpt lat="46.045935" lon="6.984041"><ele>1814.0</ele><time>2026-07-01T10:09:00Z</time></trkpt>
    <trkpt lat="46.046139" lon="6.984231"><ele>1809.2</ele><time>2026-07-01T10:09:20Z</time></trkpt>
    <trkpt lat="46.046332" lon="6.984433"><ele>1797.4</ele><time>2026-07-01T10:09:40Z</time></trkpt>
    <trkpt lat="46.046507" lon="6.984654"><ele>1793.2</ele><time>2026-07-01T10:10:00Z</time></trkpt>
    <trkpt lat="46.046655" lon="6.984900"><ele>1783.4</ele><time>2026-07-01T10:10:20Z</time></trkpt>
    <trkpt lat="46.046775" lon="6.985176"><ele>1779.8</ele><time>2026-07-01T10:10:40Z</time></trkpt>
    <trkpt lat="46.046862" lon="6.985484"><ele>1771.3</ele><time>2026-07-01T10:11:00Z</time></trkpt>
    <trkpt lat="46.046918" lon="6.985823"><ele>1762.3</ele><time>2026-07-01T10:11:20Z</time></trkpt>
    <trkpt lat="46.046945" lon="6.986191"><ele>1758.5</ele><time>2026-07-01T10:11:40Z</time></trkpt>
    <trkpt lat="46.046950" lon="6.986581"><ele>1754.0</ele><time>2026-07-01T10:12:00Z</time></trkpt>
    <trkpt lat="46.046941" lon="6.986985"><ele>1744.4</ele><time>2026-07-01T10:12:20Z</time></trkpt>
    <trkpt lat="46.046928" lon="6.987393"><ele>1739.0</ele><time>2026-07-01T10:12:40Z</time></trkpt>
    <trkpt lat="46.046921" lon="6.987795"><ele>1730.1</ele><time>2026-07-01T10:13:00Z</time></trkpt>
    <trkpt lat="46.046932" lon="6.988179"><ele>1719.9</ele><time>2026-07-01T10:13:20Z</time></trkpt>
    <trkpt lat="46.046972" lon="6.988534"><ele>1716.8</ele><time>2026-07-01T10:13:40Z</time></trkpt>
    <trkpt lat="46.047050" lon="6.988851"><ele>1708.4</ele><time>2026-07-01T10:14:00Z</time></trkpt>
    <trkpt lat="46.047174" lon="6.989123"><ele>1699.8</ele><time>2026-07-01T10:14:20Z</time></trkpt>
    <trkpt lat="46.047348" lon="6.989344"><ele>1696.1</ele><time>2026-07-01T10:14:40Z</time></trkpt>
    <trkpt lat="46.047573" lon="6.989513"><ele>1688.3</ele><time>2026-07-01T10:15:00Z</time></trkpt>
    <trkpt lat="46.047848" lon="6.989634"><ele>1680.0</ele><time>2026-07-01T10:15:20Z</time></trkpt>
    <trkpt lat="46.048167" lon="6.989710"><ele>1675.1</ele><time>2026-07-01T10:15:40Z</time></trkpt>
    <trkpt lat="46.048521" lon="6.989750"><ele>1665.4</ele><time>2026-07-01T10:16:00Z</time></trkpt>
    <trkpt lat="46.048900" lon="6.989767"><ele>1660.6</ele><time>2026-07-01T10:16:20Z</time></trkpt>
    <trkpt lat="46.049289" lon="6.989772"><ele>1651.2</ele><time>2026-07-01T10:16:40Z</time></trkpt>
    <trkpt lat="46.049675" lon="6.989782"><ele>1646.4</ele><time>2026-07-01T10:17:00Z</time></trkpt>
    <trkpt lat="46.050042" lon="6.989810"><ele>1636.9</ele><time>2026-07-01T10:17:20Z</time></trkpt>
    <trkpt lat="46.050376" lon="6.989871"><ele>1633.7</ele><time>2026-07-01T10:17:40Z</time></trkpt>
    <trkpt lat="46.050665" lon="6.989977"><ele>1624.8</ele><time>2026-07-01T10:18:00Z</time></trkpt>
    <trkpt lat="46.050899" lon="6.990138"><ele>1619.5</ele><time>2026-07-01T10:18:20Z</time></trkpt>
    <trkpt lat="46.051071" lon="6.990361"><ele>1609.1</ele><time>2026-07-01T10:18:40Z</time></trkpt>
    <trkpt lat="46.051179" lon="6.990648"><ele>1602.6</ele><time>2026-07-01T10:19:00Z</time></trkpt>
    <trkpt lat="46.051223" lon="6.990999"><ele>1597.5</ele><time>2026-07-01T10:19:20Z</time></trkpt>
    <trkpt lat="46.051209" lon="6.991408"><ele>1585.1</ele><time>2026-07-01T10:19:40Z</time></trkpt>
    <trkpt lat="46.051145" lon="6.991867"><ele>1580.5</ele><time>2026-07-01T10:20:00Z</time></trkpt>
    <trkpt lat="46.051043" lon="6.992364"><ele>1576.6</ele><time>2026-07-01T10:20:20Z</time></trkpt>
    <trkpt lat="46.050917" lon="6.992885"><ele>1568.7</ele><time>2026-07-01T10:20:40Z</time></trkpt>
    <trkpt lat="46.050783" lon="6.993415"><ele>1562.4</ele><time>2026-07-01T10:21:00Z</time></trkpt>
    <trkpt lat="46.050657" lon="6.993936"><ele>1553.5</ele><time>2026-07-01T10:21:20Z</time></trkpt>
    <trkpt lat="46.050555" lon="6.994433"><ele>1547.7</ele><time>2026-07-01T10:21:40Z</time></trkpt>
    <trkpt lat="46.050491" lon="6.994892"><ele>1538.7</ele><time>2026-07-01T10:22:00Z</time></trkpt>
    <trkpt lat="46.050477" lon="6.995301"><ele>1530.7</ele><time>2026-07-01T10:22:20Z</time></trkpt>
    <trkpt lat="46.050521" lon="6.995652"><ele>1523.2</ele><time>2026-07-01T10:22:40Z</time></trkpt>
    <trkpt lat="46.050629" lon="6.995939"><ele>1517.9</ele><time>2026-07-01T10:23:00Z</time></trkpt>
    <trkpt lat="46.050801" lon="6.996162"><ele>1510.8</ele><time>2026-07-01T10:23:20Z</time></trkpt>
    <trkpt lat="46.051035" lon="6.996323"><ele>1503.6</ele><time>2026-07-01T10:23:40Z</time></trkpt>
    <trkpt lat="46.051324" lon="6.996429"><ele>1492.2</ele><time>2026-07-01T10:24:00Z</time></trkpt>
    <trkpt lat="46.051658" lon="6.996490"><ele>1487.5</ele><time>2026-07-01T10:24:20Z</time></trkpt>
    <trkpt lat="46.052025" lon="6.996518"><ele>1482.6</ele><time>2026-07-01T10:24:40Z</time></trkpt>
    <trkpt lat="46.052411" lon="6.996528"><ele>1476.8</ele><time>2026-07-01T10:25:00Z</time></trkpt>
    <trkpt lat="46.052800" lon="6.996533"><ele>1468.5</ele><time>2026-07-01T10:25:20Z</time></trkpt>
    <trkpt lat="46.053179" lon="6.996550"><ele>1461.0</ele><time>2026-07-01T10:25:40Z</time></trkpt>
    <trkpt lat="46.053533" lon="6.996590"><ele>1451.8</ele><time>2026-07-01T10:26:00Z</time></trkpt>
    <trkpt lat="46.053852" lon="6.996666"><ele>1451.2</ele><time>2026-07-01T10:26:20Z</time></trkpt>
    <trkpt lat="46.054127" lon="6.996787"><ele>1439.5</ele><time>2026-07-01T10:26:40Z</time></trkpt>
    <trkpt lat="46.054352" lon="6.996956"><ele>1436.6</ele><time>2026-07-01T10:27:00Z</time></trkpt>
    <trkpt lat="46.054526" lon="6.997177"><ele>1429.4</ele><time>2026-07-01T10:27:20Z</time></trkpt>
    <trkpt lat="46.054650" lon="6.997449"><ele>1420.4</ele><time>2026-07-01T10:27:40Z</time></trkpt>
    <trkpt lat="46.054728" lon="6.997766"><ele>1412.1</ele><time>2026-07-01T10:28:00Z</time></trkpt>
    <trkpt lat="46.054768" lon="6.998121"><ele>1406.1</ele><time>2026-07-01T10:28:20Z</time></trkpt>
    <trkpt lat="46.054779" lon="6.998505"><ele>1397.1</ele><time>2026-07-01T10:28:40Z</time></trkpt>
    <trkpt lat="46.054772" lon="6.998907"><ele>1392.2</ele><time>2026-07-01T10:29:00Z</time></trkpt>
    <trkpt lat="46.054759" lon="6.999315"><ele>1384.7</ele><time>2026-07-01T10:29:20Z</time></trkpt>
    <trkpt lat="46.054750" lon="6.999719"><ele>1378.5</ele><time>2026-07-01T10:29:40Z</time></trkpt>
    <trkpt lat="46.054755" lon="7.000109"><ele>1372.1</ele><time>2026-07-01T10:30:00Z</time></trkpt>
    <trkpt lat="46.054782" lon="7.000477"><ele>1366.2</ele><time>2026-07-01T10:30:20Z</time></trkpt>
    <trkpt lat="46.054838" lon="7.000816"><ele>1356.0</ele><time>2026-07-01T10:30:40Z</time></trkpt>
    <trkpt lat="46.054925" lon="7.001124"><ele>1351.1</ele><time>2026-07-01T10:31:00Z</time></trkpt>
    <trkpt lat="46.055045" lon="7.001400"><ele>1341.3</ele><time>2026-07-01T10:31:20Z</time></trkpt>
    <trkpt lat="46.055193" lon="7.001646"><ele>1334.1</ele><time>2026-07-01T10:31:40Z</time></trkpt>
    <trkpt lat="46.055368" lon="7.001867"><ele>1327.4</ele><time>2026-07-01T10:32:00Z</time></trkpt>
    <trkpt lat="46.055561" lon="7.002069"><ele>1319.8</ele><time>2026-07-01T10:32:20Z</time></trkpt>
    <trkpt lat="46.055765" lon="7.002259"><ele>1315.7</ele><time>2026-07-01T10:32:40Z</time></trkpt>
    <trkpt lat="46.055973" lon="7.002446"><ele>1308.6</ele><time>2026-07-01T10:33:00Z</time></trkpt>
    <trkpt lat="46.056177" lon="7.002638"><ele>1302.1</ele><time>2026-07-01T10:33:20Z</time></trkpt>
    <trkpt lat="46.056369" lon="7.002840"><ele>1293.1</ele><time>2026-07-01T10:33:40Z</time></trkpt>
    <trkpt lat="46.056545" lon="7.003060"><ele>1286.5</ele><time>2026-07-01T10:34:00Z</time></trkpt>
    <trkpt lat="46.056700" lon="7.003300"><ele>1279.0</ele><time>2026-07-01T10:34:20Z</time></trkpt>
  </trkseg></trk>
</gpx>
