<?xml version="1.0" encoding="UTF-8"?>
<gpx version="1.1" creator="earthling demo" xmlns="http://www.topografix.com/GPX/1/1">
  <trk><name>day02_trient_champex</name><trkseg>
    <trkpt lat="46.056700" lon="7.003300"><ele>1279.5</ele><time>2026-07-02T06:00:00Z</time></trkpt>
    <trkpt lat="46.056590" lon="7.003560"><ele>1284.0</ele><time>2026-07-02T06:00:20Z</time></trkpt>
    <trkpt lat="46.056500" lon="7.003800"><ele>1287.0</ele><time>2026-07-02T06:00:40Z</time></trkpt>
    <trkpt lat="46.056428" lon="7.004022"><ele>1288.3</ele><time>2026-07-02T06:01:00Z</time></trkpt>
    <trkpt lat="46.056367" lon="7.004233"><ele>1295.4</ele><time>2026-07-02T06:01:20Z</time></trkpt>
    <trkpt lat="46.056310" lon="7.004440"><ele>1298.5</ele><time>2026-07-02T06:01:40Z</time></trkpt>
    <trkpt lat="46.056249" lon="7.004651"><ele>1300.8</ele><time>2026-07-02T06:02:00Z</time></trkpt>
    <trkpt lat="46.056176" lon="7.004874"><ele>1306.2</ele><time>2026-07-02T06:02:20Z</time></trkpt>
    <trkpt lat="46.056083" lon="7.005117"><ele>1309.6</ele><time>2026-07-02T06:02:40Z</time></trkpt>
    <trkpt lat="46.055963" lon="7.005387"><ele>1313.3</ele><time>2026-07-02T06:03:00Z</time></trkpt>
    <trkpt lat="46.055812" lon="7.005688"><ele>1316.7</ele><time>2026-07-02T06:03:20Z</time></trkpt>
    <trkpt lat="46.055629" lon="7.006021"><ele>1321.2</ele><time>2026-07-02T06:03:40Z</time></trkpt>
    <trkpt lat="46.055413" lon="7.006387"><ele>1323.0</ele><time>2026-07-02T06:04:00Z</time></trkpt>
    <trkpt lat="46.055170" lon="7.006780"><ele>1327.7</ele><time>2026-07-02T06:04:20Z</time></trkpt>
    <trkpt lat="46.054904" lon="7.007196"><ele>1331.0</ele><time>2026-07-02T06:04:40Z</time></trkpt>
    <trkpt lat="46.054626" lon="7.007624"><ele>1336.3</ele><time>2026-07-02T06:05:00Z</time></trkpt>
    <trkpt lat="46.054345" lon="7.008055"><ele>1339.3</ele><time>2026-07-02T06:05:20Z</time></trkpt>
    <trkpt lat="46.054074" lon="7.008476"><ele>1342.5</ele><time>2026-07-02T06:05:40Z</time></trkpt>
    <trkpt lat="46.053823" lon="7.008877"><ele>1345.6</ele><time>2026-07-02T06:06:00Z</time></trkpt>
    <trkpt lat="46.053604" lon="7.009246"><ele>1350.1</ele><time>2026-07-02T06:06:20Z</time></trkpt>
    <trkpt lat="46.053426" lon="7.009574"><ele>1354.3</ele><time>2026-07-02T06:06:40Z</time></trkpt>
    <trkpt lat="46.053297" lon="7.009853"><ele>1357.6</ele><time>2026-07-02T06:07:00Z</time></trkpt>
    <trkpt lat="46.053219" lon="7.010081"><ele>1363.7</ele><time>2026-07-02T06:07:20Z</time></trkpt>
    <trkpt lat="46.053195" lon="7.010255"><ele>1367.0</ele><time>2026-07-02T06:07:40Z</time></trkpt>
    <trkpt lat="46.053219" lon="7.010381"><ele>1365.2</ele><time>2026-07-02T06:08:00Z</time></trkpt>
    <trkpt lat="46.053287" lon="7.010463"><ele>1370.2</ele><time>2026-07-02T06:08:20Z</time></trkpt>
    <trkpt lat="46.053387" lon="7.010513"><ele>1376.6</ele><time>2026-07-02T06:08:40Z</time></trkpt>
    <trkpt lat="46.053508" lon="7.010542"><ele>1380.0</ele><time>2026-07-02T06:09:00Z</time></trkpt>
    <trkpt lat="46.053635" lon="7.010565"><ele>1384.7</ele><time>2026-07-02T06:09:20Z</time></trkpt>
    <trkpt lat="46.053753" lon="7.010597"><ele>1388.4</ele><time>2026-07-02T06:09:40Z</time></trkpt>
    <trkpt lat="46.053846" lon="7.010654"><ele>1395.1</ele><time>2026-07-02T06:10:00Z</time></trkpt>
    <trkpt lat="46.053901" lon="7.010749"><ele>1394.0</ele><time>2026-07-02T06:10:20Z</time></trkpt>
    <trkpt lat="46.053905" lon="7.010895"><ele>1398.8</ele><time>2026-07-02T06:10:40Z</time></trkpt>
    <trkpt lat="46.053850" lon="7.011100"><ele>1406.2</ele><time>2026-07-02T06:11:00Z</time></trkpt>
    <trkpt lat="46.053730" lon="7.011370"><ele>1407.9</ele><time>2026-07-02T06:11:20Z</time></trkpt>
    <trkpt lat="46.053544" lon="7.011706"><ele>1411.7</ele><time>2026-07-02T06:11:40Z</time></trkpt>
    <trkpt lat="46.053294" lon="7.012106"><ele>1413.7</ele><time>2026-07-02T06:12:00Z</time></trkpt>
    <trkpt lat="46.052988" lon="7.012562"><ele>1415.7</ele><time>2026-07-02T06:12:20Z</time></trkpt>
    <trkpt lat="46.052636" lon="7.013064"><ele>1422.2</ele><time>2026-07-02T06:12:40Z</time></trkpt>
    <trkpt lat="46.052251" lon="7.013599"><ele>1425.9</ele><time>2026-07-02T06:13:00Z</time></trkpt>
    <trkpt lat="46.051850" lon="7.014150"><ele>1427.7</ele><time>2026-07-02T06:13:20Z</time></trkpt>
    <trkpt lat="46.051449" lon="7.014701"><ele>1432.2</ele><time>2026-07-02T06:13:40Z</time></trkpt>
    <trkpt lat="46.051064" lon="7.015236"><ele>1436.9</ele><time>2026-07-02T06:14:00Z</time></trkpt>
    <trkpt lat="46.050712" lon="7.015738"><ele>1439.4</ele><time>2026-07-02T06:14:20Z</time></trkpt>
    <trkpt lat="46.050406" lon="7.016194"><ele>1444.4</ele><time>2026-07-02T06:14:40Z</time></trkpt>
    <trkpt lat="46.050156" lon="7.016594"><ele>1448.5</ele><time>2026-07-02T06:15:00Z</time></trkpt>
    <trkpt lat="46.049970" lon="7.016930"><ele>1452.1</ele><time>2026-07-02T06:15:20Z</time></trkpt>
    <trkpt lat="46.049850" lon="7.017200"><ele>1455.1</ele><time>2026-07-02T06:15:40Z</time></trkpt>
    <trkpt lat="46.049795" lon="7.017405"><ele>1460.5</ele><time>2026-07-02T06:16:00Z</time></trkpt>
    <trkpt lat="46.049799" lon="7.017551"><ele>1464.7</ele><time>2026-07-02T06:16:20Z</time></trkpt>
    <trkpt lat="46.049854" lon="7.017646"><ele>1467.6</ele><time>2026-07-02T06:16:40Z</time></trkpt>
    <trkpt lat="46.049947" lon="7.017703"><ele>1469.7</ele><time>2026-07-02T06:17:00Z</time></trkpt>
    <trkpt lat="46.050065" lon="7.017735"><ele>1475.7</ele><time>2026-07-02T06:17:20Z</time></trkpt>
    <trkpt lat="46.050192" lon="7.017758"><ele>1477.7</ele><time>2026-07-02T06:17:40Z</time></trkpt>
    <trkpt lat="46.050313" lon="7.017787"><ele>1483.5</ele><time>2026-07-02T06:18:00Z</time></trkpt>
    <trkpt lat="46.050413" lon="7.017837"><ele>1484.3</ele><time>2026-07-02T06:18:20Z</time></trkpt>
    <trkpt lat="46.050481" lon="7.017919"><ele>1491.1</ele><time>2026-07-02T06:18:40Z</time></trkpt>
    <trkpt lat="46.050505" lon="7.018045"><ele>1493.4</ele><time>2026-07-02T06:19:00Z</time></trkpt>
    <trkpt lat="46.050481" lon="7.018219"><ele>1495.4</ele><time>2026-07-02T06:19:20Z</time></trkpt>
    <trkpt lat="46.050403" lon="7.018447"><ele>1500.5</ele><time>2026-07-02T06:19:40Z</time></trkpt>
    <trkpt lat="46.050274" lon="7.018726"><ele>1504.8</ele><time>2026-07-02T06:20:00Z</time></trkpt>
    <trkpt lat="46.050096" lon="7.019054"><ele>1508.9</ele><time>2026-07-02T06:20:20Z</time></trkpt>
    <trkpt lat="46.049877" lon="7.019423"><ele>1510.8</ele><time>2026-07-02T06:20:40Z</time></trkpt>
    <trkpt lat="46.049626" lon="7.019824"><ele>1514.4</ele><time>2026-07-02T06:21:00Z</time></trkpt>
    <trkpt lat="46.049355" lon="7.020245"><ele>1520.1</ele><time>2026-07-02T06:21:20Z</time></trkpt>
    <trkpt lat="46.049074" lon="7.020676"><ele>1522.9</ele><time>2026-07-02T06:21:40Z</time></trkpt>
    <trkpt lat="46.048796" lon="7.021104"><ele>1527.7</ele><time>2026-07-02T06:22:00Z</time></trkpt>
    <trkpt lat="46.048530" lon="7.021520"><ele>1532.2</ele><time>2026-07-02T06:22:20Z</time></trkpt>
    <trkpt lat="46.048287" lon="7.021913"><ele>1532.4</ele><time>2026-07-02T06:22:40Z</time></trkpt>
    <trkpt lat="46.048071" lon="7.022279"><ele>1539.0</ele><time>2026-07-02T06:23:00Z</time></trkpt>
    <trkpt lat="46.047888" lon="7.022612"><ele>1544.2</ele><time>2026-07-02T06:23:20Z</time></trkpt>
    <trkpt lat="46.047737" lon="7.022913"><ele>1545.7</ele><time>2026-07-02T06:23:40Z</time></trkpt>
    <trkpt lat="46.047617" lon="7.023183"><ele>1548.7</ele><time>2026-07-02T06:24:00Z</time></trkpt>
    <trkpt lat="46.047524" lon="7.023426"><ele>1554.8</ele><time>2026-07-02T06:24:20Z</time></trkpt>
    <trkpt lat="46.047451" lon="7.023649"><ele>1557.8</ele><time>2026-07-02T06:24:40Z</time></trkpt>
    <trkpt lat="46.047390" lon="7.023860"><ele>1562.5</ele><time>2026-07-02T06:25:00Z</time></trkpt>
    <trkpt lat="46.047333" lon="7.024067"><ele>1564.4</ele><time>2026-07-02T06:25:20Z</time></trkpt>
    <trkpt lat="46.047272" lon="7.024278"><ele>1566.5</ele><time>2026-07-02T06:25:40Z</time></trkpt>
    <trkpt lat="46.047200" lon="7.024500"><ele>1572.3</ele><time>2026-07-02T06:26:00Z</time></trkpt>
    <trkpt lat="46.047110" lon="7.024740"><ele>1575.6</ele><time>2026-07-02T06:26:20Z</time></trkpt>
    <trkpt lat="46.047000" lon="7.025000"><ele>1581.2</ele><time>2026-07-02T06:26:40Z</time></trkpt>
    <trkpt lat="46.046879" lon="7.025258"><ele>1590.9</ele><time>2026-07-02T06:27:00Z</time></trkpt>
    <trkpt lat="46.046772" lon="7.025503"><ele>1598.8</ele><time>2026-07-02T06:27:20Z</time></trkpt>
    <trkpt lat="46.046676" lon="7.025736"><ele>1610.1</ele><time>2026-07-02T06:27:40Z</time></trkpt>
    <trkpt lat="46.046590" lon="7.025959"><ele>1623.9</ele><time>2026-07-02T06:28:00Z</time></trkpt>
    <trkpt lat="46.046510" lon="7.026177"><ele>1634.2</ele><time>2026-07-02T06:28:20Z</time></trkpt>
    <trkpt lat="46.046433" lon="7.026391"><ele>1642.9</ele><time>2026-07-02T06:28:40Z</time></trkpt>
    <trkpt lat="46.046355" lon="7.026606"><ele>1654.5</ele><time>2026-07-02T06:29:00Z</time></trkpt>
    <trkpt lat="46.046272" lon="7.026826"><ele>1665.8</ele><time>2026-07-02T06:29:20Z</time></trkpt>
    <trkpt lat="46.046180" lon="7.027055"><ele>1676.4</ele><time>2026-07-02T06:29:40Z</time></trkpt>
    <trkpt lat="46.046075" lon="7.027297"><ele>1687.7</ele><time>2026-07-02T06:30:00Z</time></trkpt>
    <trkpt lat="46.045955" lon="7.027555"><ele>1697.4</ele><time>2026-07-02T06:30:20Z</time></trkpt>
    <trkpt lat="46.045817" lon="7.027831"><ele>1707.5</ele><time>2026-07-02T06:30:40Z</time></trkpt>
    <trkpt lat="46.045658" lon="7.028126"><ele>1717.9</ele><time>2026-07-02T06:31:00Z</time></trkpt>
    <trkpt lat="46.045480" lon="7.028442"><ele>1730.5</ele><time>2026-07-02T06:31:20Z</time></trkpt>
    <trkpt lat="46.045281" lon="7.028777"><ele>1736.2</ele><time>2026-07-02T06:31:40Z</time></trkpt>
    <trkpt lat="46.045065" lon="7.029131"><ele>1750.0</ele><time>2026-07-02T06:32:00Z</time></trkpt>
    <trkpt lat="46.044833" lon="7.029500"><ele>1760.9</ele><time>2026-07-02T06:32:20Z</time></trkpt>
    <trkpt lat="46.044590" lon="7.029881"><ele>1769.3</ele><time>2026-07-02T06:32:40Z</time></trkpt>
    <trkpt lat="46.044339" lon="7.030269"><ele>1782.6</ele><time>2026-07-02T06:33:00Z</time></trkpt>
    <trkpt lat="46.044086" lon="7.030659"><ele>1791.8</ele><time>2026-07-02T06:33:20Z</time></trkpt>
    <trkpt lat="46.043836" lon="7.031046"><ele>1804.7</ele><time>2026-07-02T06:33:40Z</time></trkpt>
    <trkpt lat="46.043596" lon="7.031424"><ele>1813.8</ele><time>2026-07-02T06:34:00Z</time></trkpt>
    <trkpt lat="46.043370" lon="7.031787"><ele>1825.7</ele><time>2026-07-02T06:34:20Z</time></trkpt>
    <trkpt lat="46.043164" lon="7.032131"><ele>1837.1</ele><time>2026-07-02T06:34:40Z</time></trkpt>
    <trkpt lat="46.042982" lon="7.032449"><ele>1846.5</ele><time>2026-07-02T06:35:00Z</time></trkpt>
    <trkpt lat="46.042828" lon="7.032740"><ele>1855.3</ele><time>2026-07-02T06:35:20Z</time></trkpt>
    <trkpt lat="46.042706" lon="7.033000"><ele>1864.9</ele><time>2026-07-02T06:35:40Z</time></trkpt>
    <trkpt lat="46.042616" lon="7.033228"><ele>1880.5</ele><time>2026-07-02T06:36:00Z</time></trkpt>
    <trkpt lat="46.042558" lon="7.033423"><ele>1888.3</ele><time>2026-07-02T06:36:20Z</time></trkpt>
    <trkpt lat="46.042531" lon="7.033586"><ele>1898.1</ele><time>2026-07-02T06:36:40Z</time></trkpt>
    <trkpt lat="46.042533" lon="7.033721"><ele>1910.0</ele><time>2026-07-02T06:37:00Z</time></trkpt>
    <trkpt lat="46.042560" lon="7.033832"><ele>1920.1</ele><time>2026-07-02T06:37:20Z</time></trkpt>
    <trkpt lat="46.042607" lon="7.033923"><ele>1932.3</ele><time>2026-07-02T06:37:40Z</time></trkpt>
    <trkpt lat="46.042667" lon="7.034000"><ele>1941.7</ele><time>2026-07-02T06:38:00Z</time></trkpt>
    <trkpt lat="46.042733" lon="7.034070"><ele>1952.3</ele><time>2026-07-02T06:38:20Z</time></trkpt>
    <trkpt lat="46.042800" lon="7.034141"><ele>1961.9</ele><time>2026-07-02T06:38:40Z</time></trkpt>
    <trkpt lat="46.042858" lon="7.034220"><ele>1974.3</ele><time>2026-07-02T06:39:00Z</time></trkpt>
    <trkpt lat="46.042901" lon="7.034314"><ele>1982.7</ele><time>2026-07-02T06:39:20Z</time></trkpt>
    <trkpt lat="46.042922" lon="7.034431"><ele>1995.9</ele><time>2026-07-02T06:39:40Z</time></trkpt>
    <trkpt lat="46.042915" lon="7.034575"><ele>2007.8</ele><time>2026-07-02T06:40:00Z</time></trkpt>
    <trkpt lat="46.042874" lon="7.034753"><ele>2013.8</ele><time>2026-07-02T06:40:20Z</time></trkpt>
    <trkpt lat="46.042796" lon="7.034968"><ele>2023.1</ele><time>2026-07-02T06:40:40Z</time></trkpt>
    <trkpt lat="46.042678" lon="7.035224"><ele>2038.3</ele><time>2026-07-02T06:41:00Z</time></trkpt>
    <trkpt lat="46.042520" lon="7.035520"><ele>2051.9</ele><time>2026-07-02T06:41:20Z</time></trkpt>
    <trkpt lat="46.042321" lon="7.035856"><ele>2057.2</ele><time>2026-07-02T06:41:40Z</time></trkpt>
    <trkpt lat="46.042084" lon="7.036230"><ele>2067.4</ele><time>2026-07-02T06:42:00Z</time></trkpt>
    <trkpt lat="46.041812" lon="7.036639"><ele>2080.8</ele><time>2026-07-02T06:42:20Z</time></trkpt>
    <trkpt lat="46.041511" lon="7.037077"><ele>2089.3</ele><time>2026-07-02T06:42:40Z</time></trkpt>
    <trkpt lat="46.041188" lon="7.037538"><ele>2100.5</ele><time>2026-07-02T06:43:00Z</time></trkpt>
    <trkpt lat="46.040848" lon="7.038015"><ele>2111.3</ele><time>2026-07-02T06:43:20Z</time></trkpt>
    <trkpt lat="46.040500" lon="7.038500"><ele>2123.3</ele><time>2026-07-02T06:43:40Z</time></trkpt>
    <trkpt lat="46.040152" lon="7.038985"><ele>2132.5</ele><time>2026-07-02T06:44:00Z</time></trkpt>
    <trkpt lat="46.039812" lon="7.039462"><ele>2144.2</ele><time>2026-07-02T06:44:20Z</time></trkpt>
    <trkpt lat="46.039489" lon="7.039923"><ele>2154.1</ele><time>2026-07-02T06:44:40Z</time></trkpt>
    <trkpt lat="46.039188" lon="7.040361"><ele>2163.8</ele><time>2026-07-02T06:45:00Z</time></trkpt>
    <trkpt lat="46.038916" lon="7.040770"><ele>2175.2</ele><time>2026-07-02T06:45:20Z</time></trkpt>
    <trkpt lat="46.038679" lon="7.041144"><ele>2184.9</ele><time>2026-07-02T06:45:40Z</time></trkpt>
    <trkpt lat="46.038480" lon="7.041480"><ele>2197.0</ele><time>2026-07-02T06:46:00Z</time></trkpt>
    <trkpt lat="46.038322" lon="7.041776"><ele>2205.9</ele><time>2026-07-02T06:46:20Z</time></trkpt>
    <trkpt lat="46.038204" lon="7.042032"><ele>2216.6</ele><time>2026-07-02T06:46:40Z</time></trkpt>
    <trkpt lat="46.038126" lon="7.042247"><ele>2231.1</ele><time>2026-07-02T06:47:00Z</time></trkpt>
    <trkpt lat="46.038085" lon="7.042425"><ele>2239.4</ele><time>2026-07-02T06:47:20Z</time></trkpt>
    <trkpt lat="46.038078" lon="7.042569"><ele>2250.1</ele><time>2026-07-02T06:47:40Z</time></trkpt>
    <trkpt lat="46.038099" lon="7.042686"><ele>2261.6</ele><time>2026-07-02T06:48:00Z</time></trkpt>
    <trkpt lat="46.038142" lon="7.042780"><ele>2270.8</ele><time>2026-07-02T06:48:20Z</time></trkpt>
    <trkpt lat="46.038200" lon="7.042859"><ele>2281.7</ele><time>2026-07-02T06:48:40Z</time></trkpt>
    <trkpt lat="46.038267" lon="7.042930"><ele>2293.3</ele><time>2026-07-02T06:49:00Z</time></trkpt>
    <trkpt lat="46.038333" lon="7.043000"><ele>2303.8</ele><time>2026-07-02T06:49:20Z</time></trkpt>
    <trkpt lat="46.038393" lon="7.043077"><ele>2312.2</ele><time>2026-07-02T06:49:40Z</time></trkpt>
    <trkpt lat="46.038440" lon="7.043168"><ele>2325.9</ele><time>2026-07-02T06:50:00Z</time></trkpt>
    <trkpt lat="46.038467" lon="7.043279"><ele>2334.4</ele><time>2026-07-02T06:50:20Z</time></trkpt>
    <trkpt lat="46.038469" lon="7.043414"><ele>2344.3</ele><time>2026-07-02T06:50:40Z</time></trkpt>
    <trkpt lat="46.038442" lon="7.043577"><ele>2355.2</ele><time>2026-07-02T06:51:00Z</time></trkpt>
    <trkpt lat="46.038384" lon="7.043772"><ele>2366.6</ele><time>2026-07-02T06:51:20Z</time></trkpt>
    <trkpt lat="46.038294" lon="7.044000"><ele>2380.2</ele><time>2026-07-02T06:51:40Z</time></trkpt>
    <trkpt lat="46.038172" lon="7.044260"><ele>2386.7</ele><time>2026-07-02T06:52:00Z</time></trkpt>
    <trkpt lat="46.038018" lon="7.044551"><ele>2399.3</ele><time>2026-07-02T06:52:20Z</time></trkpt>
    <trkpt lat="46.037836" lon="7.044869"><ele>2406.5</ele><time>2026-07-02T06:52:40Z</time></trkpt>
    <trkpt lat="46.037630" lon="7.045213"><ele>2420.3</ele><time>2026-07-02T06:53:00Z</time></trkpt>
    <trkpt lat="46.037404" lon="7.045576"><ele>2432.3</ele><time>2026-07-02T06:53:20Z</time></trkpt>
    <trkpt lat="46.037164" lon="7.045954"><ele>2441.3</ele><time>2026-07-02T06:53:40Z</time></trkpt>
    <trkpt lat="46.036914" lon="7.046341"><ele>2451.3</ele><time>2026-07-02T06:54:00Z</time></trkpt>
    <trkpt lat="46.036661" lon="7.046731"><ele>2463.2</ele><time>2026-07-02T06:54:20Z</time></trkpt>
    <trkpt lat="46.036410" lon="7.047119"><ele>2474.6</ele><time>2026-07-02T06:54:40Z</time></trkpt>
    <trkpt lat="46.036167" lon="7.047500"><ele>2485.2</ele><time>2026-07-02T06:55:00Z</time></trkpt>
    <trkpt lat="46.035935" lon="7.047869"><ele>2497.8</ele><time>2026-07-02T06:55:20Z</time></trkpt>
    <trkpt lat="46.035719" lon="7.048223"><ele>2505.8</ele><time>2026-07-02T06:55:40Z</time></trkpt>
    <trkpt lat="46.035520" lon="7.048558"><ele>2515.2</ele><time>2026-07-02T06:56:00Z</time></trkpt>
    <trkpt lat="46.035342" lon="7.048874"><ele>2526.5</ele><time>2026-07-02T06:56:20Z</time></trkpt>
    <trkpt lat="46.035183" lon="7.049169"><ele>2537.2</ele><time>2026-07-02T06:56:40Z</time></trkpt>
    <trkpt lat="46.035045" lon="7.049445"><ele>2548.2</ele><time>2026-07-02T06:57:00Z</time></trkpt>
    <trkpt lat="46.034925" lon="7.049703"><ele>2558.6</ele><time>2026-07-02T06:57:20Z</time></trkpt>
    <trkpt lat="46.034820" lon="7.049945"><ele>2569.5</ele><time>2026-07-02T06:57:40Z</time></trkpt>
    <trkpt lat="46.034728" lon="7.050174"><ele>2577.4</ele><time>2026-07-02T06:58:00Z</time></trkpt>
    <trkpt lat="46.034645" lon="7.050394"><ele>2591.8</ele><time>2026-07-02T06:58:20Z</time></trkpt>
    <trkpt lat="46.034567" lon="7.050609"><ele>2600.3</ele><time>2026-07-02T06:58:40Z</time></trkpt>
    <trkpt lat="46.034490" lon="7.050823"><ele>2610.1</ele><time>2026-07-02T06:59:00Z</time></trkpt>
    <trkpt lat="46.034410" lon="7.051041"><ele>2623.4</ele><time>2026-07-02T06:59:20Z</time></trkpt>
    <trkpt lat="46.034324" lon="7.051264"><ele>2635.1</ele><time>2026-07-02T06:59:40Z</time></trkpt>
    <trkpt lat="46.034228" lon="7.051497"><ele>2644.5</ele><time>2026-07-02T07:00:00Z</time></trkpt>
    <trkpt lat="46.034121" lon="7.051742"><ele>2654.6</ele><time>2026-07-02T07:00:20Z</time></trkpt>
    <trkpt lat="46.034000" lon="7.052000"><ele>2663.6</ele><time>2026-07-02T07:00:40Z</time></trkpt>
    <trkpt lat="46.033998" lon="7.052313"><ele>2661.7</ele><time>2026-07-02T07:01:00Z</time></trkpt>
    <trkpt lat="46.034013" lon="7.052607"><ele>2651.0</ele><time>2026-07-02T07:01:20Z</time></trkpt>
    <trkpt lat="46.034044" lon="7.052887"><ele>2640.4</ele><time>2026-07-02T07:01:40Z</time></trkpt>
    <trkpt lat="46.034086" lon="7.053156"><ele>2633.3</ele><time>2026-07-02T07:02:00Z</time></trkpt>
    <trkpt lat="46.034133" lon="7.053419"><ele>2626.9</ele><time>2026-07-02T07:02:20Z</time></trkpt>
    <trkpt lat="46.034180" lon="7.053682"><ele>2616.8</ele><time>2026-07-02T07:02:40Z</time></trkpt>
    <trkpt lat="46.034219" lon="7.053953"><ele>2611.7</ele><time>2026-07-02T07:03:00Z</time></trkpt>
    <trkpt lat="46.034245" lon="7.054237"><ele>2603.2</ele><time>2026-07-02T07:03:20Z</time></trkpt>
    <trkpt lat="46.034253" lon="7.054541"><ele>2598.0</ele><time>2026-07-02T07:03:40Z</time></trkpt>
    <trkpt lat="46.034236" lon="7.054867"><ele>2590.0</ele><time>2026-07-02T07:04:00Z</time></trkpt>
    <trkpt lat="46.034193" lon="7.055221"><ele>2576.9</ele><time>2026-07-02T07:04:20Z</time></trkpt>
    <trkpt lat="46.034122" lon="7.055602"><ele>2573.3</ele><time>2026-07-02T07:04:40Z</time></trkpt>
    <trkpt lat="46.034024" lon="7.056011"><ele>2563.2</ele><time>2026-07-02T07:05:00Z</time></trkpt>
    <trkpt lat="46.033902" lon="7.056443"><ele>2559.7</ele><time>2026-07-02T07:05:20Z</time></trkpt>
    <trkpt lat="46.033761" lon="7.056894"><ele>2550.6</ele><time>2026-07-02T07:05:40Z</time></trkpt>
    <trkpt lat="46.033607" lon="7.057359"><ele>2543.5</ele><time>2026-07-02T07:06:00Z</time></trkpt>
    <trkpt lat="46.033448" lon="7.057828"><ele>2533.5</ele><time>2026-07-02T07:06:20Z</time></trkpt>
    <trkpt lat="46.033294" lon="7.058293"><ele>2530.2</ele><time>2026-07-02T07:06:40Z</time></trkpt>
    <trkpt lat="46.033152" lon="7.058744"><ele>2522.8</ele><time>2026-07-02T07:07:00Z</time></trkpt>
    <trkpt lat="46.033033" lon="7.059174"><ele>2510.5</ele><time>2026-07-02T07:07:20Z</time></trkpt>
    <trkpt lat="46.032944" lon="7.059573"><ele>2505.0</ele><time>2026-07-02T07:07:40Z</time></trkpt>
    <trkpt lat="46.032892" lon="7.059935"><ele>2495.8</ele><time>2026-07-02T07:08:00Z</time></trkpt>
    <trkpt lat="46.032882" lon="7.060256"><ele>2489.2</ele><time>2026-07-02T07:08:20Z</time></trkpt>
    <trkpt lat="46.032916" lon="7.060532"><ele>2479.7</ele><time>2026-07-02T07:08:40Z</time></trkpt>
    <trkpt lat="46.032995" lon="7.060764"><ele>2476.7</ele><time>2026-07-02T07:09:00Z</time></trkpt>
    <trkpt lat="46.033115" lon="7.060954"><ele>2464.8</ele><time>2026-07-02T07:09:20Z</time></trkpt>
    <trkpt lat="46.033273" lon="7.061107"><ele>2458.2</ele><time>2026-07-02T07:09:40Z</time></trkpt>
    <trkpt lat="46.033460" lon="7.061230"><ele>2451.7</ele><time>2026-07-02T07:10:00Z</time></trkpt>
    <trkpt lat="46.033667" lon="7.061333"><ele>2442.4</ele><time>2026-07-02T07:10:20Z</time></trkpt>
    <trkpt lat="46.033883" lon="7.061427"><ele>2435.3</ele><time>2026-07-02T07:10:40Z</time></trkpt>
    <trkpt lat="46.034097" lon="7.061524"><ele>2427.2</ele><time>2026-07-02T07:11:00Z</time></trkpt>
    <trkpt lat="46.034297" lon="7.061634"><ele>2420.2</ele><time>2026-07-02T07:11:20Z</time></trkpt>
    <trkpt lat="46.034470" lon="7.061771"><ele>2411.0</ele><time>2026-07-02T07:11:40Z</time></trkpt>
    <trkpt lat="46.034608" lon="7.061944"><ele>2404.5</ele><time>2026-07-02T07:12:00Z</time></trkpt>
    <trkpt lat="46.034700" lon="7.062162"><ele>2397.2</ele><time>2026-07-02T07:12:20Z</time></trkpt>
    <trkpt lat="46.034741" lon="7.062432"><ele>2389.3</ele><time>2026-07-02T07:12:40Z</time></trkpt>
    <trkpt lat="46.034726" lon="7.062756"><ele>2382.3</ele><time>2026-07-02T07:13:00Z</time></trkpt>
    <trkpt lat="46.034656" lon="7.063137"><ele>2374.1</ele><time>2026-07-02T07:13:20Z</time></trkpt>
    <trkpt lat="46.034532" lon="7.063572"><ele>2368.0</ele><time>2026-07-02T07:13:40Z</time></trkpt>
    <trkpt lat="46.034359" lon="7.064055"><ele>2358.8</ele><time>2026-07-02T07:14:00Z</time></trkpt>
    <trkpt lat="46.034145" lon="7.064579"><ele>2351.4</ele><time>2026-07-02T07:14:20Z</time></trkpt>
    <trkpt lat="46.033900" lon="7.065135"><ele>2343.0</ele><time>2026-07-02T07:14:40Z</time></trkpt>
    <trkpt lat="46.033635" lon="7.065709"><ele>2335.5</ele><time>2026-07-02T07:15:00Z</time></trkpt>
    <trkpt lat="46.033365" lon="7.066291"><ele>2326.8</ele><time>2026-07-02T07:15:20Z</time></trkpt>
    <trkpt lat="46.033100" lon="7.066865"><ele>2321.8</ele><time>2026-07-02T07:15:40Z</time></trkpt>
    <trkpt lat="46.032855" lon="7.067421"><ele>2311.7</ele><time>2026-07-02T07:16:00Z</time></trkpt>
    <trkpt lat="46.032641" lon="7.067945"><ele>2304.6</ele><time>2026-07-02T07:16:20Z</time></trkpt>
    <trkpt lat="46.032468" lon="7.068428"><ele>2298.6</ele><time>2026-07-02T07:16:40Z</time></trkpt>
    <trkpt lat="46.032344" lon="7.068863"><ele>2291.1</ele><time>2026-07-02T07:17:00Z</time></trkpt>
    <trkpt lat="46.032274" lon="7.069244"><ele>2282.2</ele><time>2026-07-02T07:17:20Z</time></trkpt>
    <trkpt lat="46.032259" lon="7.069568"><ele>2272.1</ele><time>2026-07-02T07:17:40Z</time></trkpt>
    <trkpt lat="46.032300" lon="7.069838"><ele>2268.2</ele><time>2026-07-02T07:18:00Z</time></trkpt>
    <trkpt lat="46.032392" lon="7.070056"><ele>2260.3</ele><time>2026-07-02T07:18:20Z</time></trkpt>
    <trkpt lat="46.032530" lon="7.070229"><ele>2250.1</ele><time>2026-07-02T07:18:40Z</time></trkpt>
    <trkpt lat="46.032703" lon="7.070366"><ele>2245.8</ele><time>2026-07-02T07:19:00Z</time></trkpt>
    <trkpt lat="46.032903" lon="7.070476"><ele>2235.9</ele><time>2026-07-02T07:19:20Z</time></trkpt>
    <trkpt lat="46.033117" lon="7.070573"><ele>2227.6</ele><time>2026-07-02T07:19:40Z</time></trkpt>
    <trkpt lat="46.033333" lon="7.070667"><ele>2221.8</ele><time>2026-07-02T07:20:00Z</time></trkpt>
    <trkpt lat="46.033540" lon="7.070770"><ele>2213.8</ele><time>2026-07-02T07:20:20Z</time></trkpt>
    <trkpt lat="46.033727" lon="7.070893"><ele>2206.7</ele><time>2026-07-02T07:20:40Z</time></trkpt>
    <trkpt lat="46.033885" lon="7.071046"><ele>2196.3</ele><time>2026-07-02T07:21:00Z</time></trkpt>
    <trkpt lat="46.034005" lon="7.071236"><ele>2193.8</ele><time>2026-07-02T07:21:20Z</time></trkpt>
    <trkpt lat="46.034084" lon="7.071468"><ele>2182.5</ele><time>2026-07-02T07:21:40Z</time></trkpt>
    <trkpt lat="46.034118" lon="7.071744"><ele>2173.5</ele><time>2026-07-02T07:22:00Z</time></trkpt>
    <trkpt lat="46.034108" lon="7.072065"><ele>2169.1</ele><time>2026-07-02T07:22:20Z</time></trkpt>
    <trkpt lat="46.034056" lon="7.072427"><ele>2160.0</ele><time>2026-07-02T07:22:40Z</time></trkpt>
    <trkpt lat="46.033967" lon="7.072826"><ele>2153.4</ele><time>2026-07-02T07:23:00Z</time></trkpt>
    <trkpt lat="46.033848" lon="7.073256"><ele>2144.7</ele><time>2026-07-02T07:23:20Z</time></trkpt>
    <trkpt lat="46.033706" lon="7.073707"><ele>2137.5</ele><time>2026-07-02T07:23:40Z</time></trkpt>
    <trkpt lat="46.033552" lon="7.074172"><ele>2130.3</ele><time>2026-07-02T07:24:00Z</time></trkpt>
    <trkpt lat="46.033393" lon="7.074641"><ele>2121.2</ele><time>2026-07-02T07:24:20Z</time></trkpt>
    <trkpt lat="46.033239" lon="7.075106"><ele>2115.7</ele><time>2026-07-02T07:24:40Z</time></trkpt>
    <trkpt lat="46.033098" lon="7.075557"><ele>2106.3</ele><time>2026-07-02T07:25:00Z</time></trkpt>
    <trkpt lat="46.032976" lon="7.075989"><ele>2098.1</ele><time>2026-07-02T07:25:20Z</time></trkpt>
    <trkpt lat="46.032878" lon="7.076398"><ele>2091.8</ele><time>2026-07-02T07:25:40Z</time></trkpt>
    <trkpt lat="46.032807" lon="7.076779"><ele>2084.7</ele><time>2026-07-02T07:26:00Z</time></trkpt>
    <trkpt lat="46.032764" lon="7.077133"><ele>2076.1</ele><time>2026-07-02T07:26:20Z</time></trkpt>
    <trkpt lat="46.032747" lon="7.077459"><ele>2067.5</ele><time>2026-07-02T07:26:40Z</time></trkpt>
    <trkpt lat="46.032755" lon="7.077763"><ele>2062.1</ele><time>2026-07-02T07:27:00Z</time></trkpt>
    <trkpt lat="46.032781" lon="7.078047"><ele>2050.9</ele><time>2026-07-02T07:27:20Z</time></trkpt>
    <trkpt lat="46.032820" lon="7.078318"><ele>2044.3</ele><time>2026-07-02T07:27:40Z</time></trkpt>
    <trkpt lat="46.032867" lon="7.078581"><ele>2038.3</ele><time>2026-07-02T07:28:00Z</time></trkpt>
    <trkpt lat="46.032914" lon="7.078844"><ele>2028.5</ele><time>2026-07-02T07:28:20Z</time></trkpt>
    <trkpt lat="46.032956" lon="7.079113"><ele>2023.0</ele><time>2026-07-02T07:28:40Z</time></trkpt>
    <trkpt lat="46.032987" lon="7.079393"><ele>2015.2</ele><time>2026-07-02T07:29:00Z</time></trkpt>
    <trkpt lat="46.033002" lon="7.079687"><ele>2009.0</ele><time>2026-07-02T07:29:20Z</time></trkpt>
    <trkpt lat="46.033000" lon="7.080000"><ele>1998.6</ele><time>2026-07-02T07:29:40Z</time></trkpt>
    <trkpt lat="46.032979" lon="7.080313"><ele>1994.3</ele><time>2026-07-02T07:30:00Z</time></trkpt>
    <trkpt lat="46.032969" lon="7.080615"><ele>1991.0</ele><time>2026-07-02T07:30:20Z</time></trkpt>
    <trkpt lat="46.032968" lon="7.080908"><ele>1982.1</ele><time>2026-07-02T07:30:40Z</time></trkpt>
    <trkpt lat="46.032976" lon="7.081192"><ele>1985.7</ele><time>2026-07-02T07:31:00Z</time></trkpt>
    <trkpt lat="46.032990" lon="7.081470"><ele>1975.3</ele><time>2026-07-02T07:31:20Z</time></trkpt>
    <trkpt lat="46.033008" lon="7.081744"><ele>1970.6</ele><time>2026-07-02T07:31:40Z</time></trkpt>
    <trkpt lat="46.033028" lon="7.082017"><ele>1968.2</ele><time>2026-07-02T07:32:00Z</time></trkpt>
    <trkpt lat="46.033045" lon="7.082291"><ele>1962.1</ele><time>2026-07-02T07:32:20Z</time></trkpt>
    <trkpt lat="46.033057" lon="7.082571"><ele>1954.8</ele><time>2026-07-02T07:32:40Z</time></trkpt>
    <trkpt lat="46.033062" lon="7.082858"><ele>1953.7</ele><time>2026-07-02T07:33:00Z</time></trkpt>
    <trkpt lat="46.033057" lon="7.083156"><ele>1949.3</ele><time>2026-07-02T07:33:20Z</time></trkpt>
    <trkpt lat="46.033038" lon="7.083466"><ele>1942.6</ele><time>2026-07-02T07:33:40Z</time></trkpt>
    <trkpt lat="46.033006" lon="7.083791"><ele>1938.1</ele><time>2026-07-02T07:34:00Z</time></trkpt>
    <trkpt lat="46.032957" lon="7.084132"><ele>1934.6</ele><time>2026-07-02T07:34:20Z</time></trkpt>
    <trkpt lat="46.032892" lon="7.084489"><ele>1927.8</ele><time>2026-07-02T07:34:40Z</time></trkpt>
    <trkpt lat="46.032810" lon="7.084862"><ele>1925.0</ele><time>2026-07-02T07:35:00Z</time></trkpt>
    <trkpt lat="46.032713" lon="7.085251"><ele>1920.0</ele><time>2026-07-02T07:35:20Z</time></trkpt>
    <trkpt lat="46.032602" lon="7.085655"><ele>1913.9</ele><time>2026-07-02T07:35:40Z</time></trkpt>
    <trkpt lat="46.032479" lon="7.086070"><ele>1908.1</ele><time>2026-07-02T07:36:00Z</time></trkpt>
    <trkpt lat="46.032347" lon="7.086494"><ele>1905.1</ele><time>2026-07-02T07:36:20Z</time></trkpt>
    <trkpt lat="46.032209" lon="7.086924"><ele>1899.4</ele><time>2026-07-02T07:36:40Z</time></trkpt>
    <trkpt lat="46.032069" lon="7.087356"><ele>1897.5</ele><time>2026-07-02T07:37:00Z</time></trkpt>
    <trkpt lat="46.031931" lon="7.087786"><ele>1891.5</ele><time>2026-07-02T07:37:20Z</time></trkpt>
    <trkpt lat="46.031799" lon="7.088210"><ele>1887.8</ele><time>2026-07-02T07:37:40Z</time></trkpt>
    <trkpt lat="46.031678" lon="7.088623"><ele>1882.1</ele><time>2026-07-02T07:38:00Z</time></trkpt>
    <trkpt lat="46.031571" lon="7.089022"><ele>1877.5</ele><time>2026-07-02T07:38:20Z</time></trkpt>
    <trkpt lat="46.031482" lon="7.089403"><ele>1871.2</ele><time>2026-07-02T07:38:40Z</time></trkpt>
    <trkpt lat="46.031415" lon="7.089762"><ele>1868.7</ele><time>2026-07-02T07:39:00Z</time></trkpt>
    <trkpt lat="46.031371" lon="7.090098"><ele>1865.6</ele><time>2026-07-02T07:39:20Z</time></trkpt>
    <trkpt lat="46.031352" lon="7.090409"><ele>1857.8</ele><time>2026-07-02T07:39:40Z</time></trkpt>
    <trkpt lat="46.031360" lon="7.090693"><ele>1852.6</ele><time>2026-07-02T07:40:00Z</time></trkpt>
    <trkpt lat="46.031395" lon="7.090950"><ele>1848.5</ele><time>2026-07-02T07:40:20Z</time></trkpt>
    <trkpt lat="46.031455" lon="7.091182"><ele>1843.3</ele><time>2026-07-02T07:40:40Z</time></trkpt>
    <trkpt lat="46.031539" lon="7.091390"><ele>1838.3</ele><time>2026-07-02T07:41:00Z</time></trkpt>
    <trkpt lat="46.031644" lon="7.091577"><ele>1834.8</ele><time>2026-07-02T07:41:20Z</time></trkpt>
    <trkpt lat="46.031767" lon="7.091746"><ele>1829.4</ele><time>2026-07-02T07:41:40Z</time></trkpt>
    <trkpt lat="46.031904" lon="7.091902"><ele>1827.3</ele><time>2026-07-02T07:42:00Z</time></trkpt>
    <trkpt lat="46.032049" lon="7.092048"><ele>1820.4</ele><time>2026-07-02T07:42:20Z</time></trkpt>
    <trkpt lat="46.032199" lon="7.092191"><ele>1816.2</ele><time>2026-07-02T07:42:40Z</time></trkpt>
    <trkpt lat="46.032346" lon="7.092335"><ele>1812.4</ele><time>2026-07-02T07:43:00Z</time></trkpt>
    <trkpt lat="46.032487" lon="7.092486"><ele>1805.8</ele><time>2026-07-02T07:43:20Z</time></trkpt>
    <trkpt lat="46.032615" lon="7.092650"><ele>1803.7</ele><time>2026-07-02T07:43:40Z</time></trkpt>
    <trkpt lat="46.032726" lon="7.092832"><ele>1795.8</ele><time>2026-07-02T07:44:00Z</time></trkpt>
    <trkpt lat="46.032814" lon="7.093035"><ele>1790.9</ele><time>2026-07-02T07:44:20Z</time></trkpt>
    <trkpt lat="46.032876" lon="7.093265"><ele>1786.8</ele><time>2026-07-02T07:44:40Z</time></trkpt>
    <trkpt lat="46.032909" lon="7.093524"><ele>1782.4</ele><time>2026-07-02T07:45:00Z</time></trkpt>
    <trkpt lat="46.032910" lon="7.093815"><ele>1775.8</ele><time>2026-07-02T07:45:20Z</time></trkpt>
    <trkpt lat="46.032879" lon="7.094139"><ele>1773.1</ele><time>2026-07-02T07:45:40Z</time></trkpt>
    <trkpt lat="46.032814" lon="7.094496"><ele>1765.9</ele><time>2026-07-02T07:46:00Z</time></trkpt>
    <trkpt lat="46.032716" lon="7.094886"><ele>1765.8</ele><time>2026-07-02T07:46:20Z</time></trkpt>
    <trkpt lat="46.032588" lon="7.095306"><ele>1758.9</ele><time>2026-07-02T07:46:40Z</time></trkpt>
    <trkpt lat="46.032432" lon="7.095754"><ele>1753.3</ele><time>2026-07-02T07:47:00Z</time></trkpt>
    <trkpt lat="46.032251" lon="7.096227"><ele>1748.2</ele><time>2026-07-02T07:47:20Z</time></trkpt>
    <trkpt lat="46.032051" lon="7.096719"><ele>1744.2</ele><time>2026-07-02T07:47:40Z</time></trkpt>
    <trkpt lat="46.031837" lon="7.097225"><ele>1739.8</ele><time>2026-07-02T07:48:00Z</time></trkpt>
    <trkpt lat="46.031613" lon="7.097741"><ele>1733.8</ele><time>2026-07-02T07:48:20Z</time></trkpt>
    <trkpt lat="46.031387" lon="7.098259"><ele>1729.3</ele><time>2026-07-02T07:48:40Z</time></trkpt>
    <trkpt lat="46.031163" lon="7.098775"><ele>1725.6</ele><time>2026-07-02T07:49:00Z</time></trkpt>
    <trkpt lat="46.030949" lon="7.099281"><ele>1720.4</ele><time>2026-07-02T07:49:20Z</time></trkpt>
    <trkpt lat="46.030749" lon="7.099773"><ele>1717.9</ele><time>2026-07-02T07:49:40Z</time></trkpt>
    <trkpt lat="46.030568" lon="7.100246"><ele>1713.4</ele><time>2026-07-02T07:50:00Z</time></trkpt>
    <trkpt lat="46.030412" lon="7.100694"><ele>1707.0</ele><time>2026-07-02T07:50:20Z</time></trkpt>
    <trkpt lat="46.030284" lon="7.101114"><ele>1703.0</ele><time>2026-07-02T07:50:40Z</time></trkpt>
    <trkpt lat="46.030186" lon="7.101504"><ele>1695.6</ele><time>2026-07-02T07:51:00Z</time></trkpt>
    <trkpt lat="46.030121" lon="7.101861"><ele>1693.8</ele><time>2026-07-02T07:51:20Z</time></trkpt>
    <trkpt lat="46.030090" lon="7.102185"><ele>1688.1</ele><time>2026-07-02T07:51:40Z</time></trkpt>
    <trkpt lat="46.030091" lon="7.102476"><ele>1684.1</ele><time>2026-07-02T07:52:00Z</time></trkpt>
    <trkpt lat="46.030124" lon="7.102735"><ele>1681.1</ele><time>2026-07-02T07:52:20Z</time></trkpt>
    <trkpt lat="46.030186" lon="7.102965"><ele>1670.5</ele><time>2026-07-02T07:52:40Z</time></trkpt>
    <trkpt lat="46.030274" lon="7.103168"><ele>1669.6</ele><time>2026-07-02T07:53:00Z</time></trkpt>
    <trkpt lat="46.030385" lon="7.103350"><ele>1662.8</ele><time>2026-07-02T07:53:20Z</time></trkpt>
    <trkpt lat="46.030513" lon="7.103514"><ele>1660.6</ele><time>2026-07-02T07:53:40Z</time></trkpt>
    <trkpt lat="46.030654" lon="7.103665"><ele>1653.1</ele><time>2026-07-02T07:54:00Z</time></trkpt>
    <trkpt lat="46.030801" lon="7.103809"><ele>1649.6</ele><time>2026-07-02T07:54:20Z</time></trkpt>
    <trkpt lat="46.030951" lon="7.103952"><ele>1645.9</ele><time>2026-07-02T07:54:40Z</time></trkpt>
    <trkpt lat="46.031096" lon="7.104098"><ele>1641.8</ele><time>2026-07-02T07:55:00Z</time></trkpt>
    <trkpt lat="46.031233" lon="7.104254"><ele>1636.2</ele><time>2026-07-02T07:55:20Z</time></trkpt>
    <trkpt lat="46.031356" lon="7.104423"><ele>1630.2</ele><time>2026-07-02T07:55:40Z</time></trkpt>
    <trkpt lat="46.031461" lon="7.104610"><ele>1625.8</ele><time>2026-07-02T07:56:00Z</time></trkpt>
    <trkpt lat="46.031545" lon="7.104818"><ele>1623.3</ele><time>2026-07-02T07:56:20Z</time></trkpt>
    <trkpt lat="46.031605" lon="7.105050"><ele>1617.2</ele><time>2026-07-02T07:56:40Z</time></trkpt>
    <trkpt lat="46.031640" lon="7.105307"><ele>1610.0</ele><time>2026-07-02T07:57:00Z</time></trkpt>
    <trkpt lat="46.031648" lon="7.105591"><ele>1609.0</ele><time>2026-07-02T07:57:20Z</time></trkpt>
    <trkpt lat="46.031629" lon="7.105902"><ele>1603.7</ele><time>2026-07-02T07:57:40Z</time></trkpt>
    <trkpt lat="46.031585" lon="7.106238"><ele>1599.6</ele><time>2026-07-02T07:58:00Z</time></trkpt>
    <trkpt lat="46.031518" lon="7.106597"><ele>1593.1</ele><time>2026-07-02T07:58:20Z</time></trkpt>
    <trkpt lat="46.031429" lon="7.106978"><ele>1590.1</ele><time>2026-07-02T07:58:40Z</time></trkpt>
    <trkpt lat="46.031322" lon="7.107377"><ele>1582.5</ele><time>2026-07-02T07:59:00Z</time></trkpt>
    <trkpt lat="46.031201" lon="7.107790"><ele>1580.3</ele><time>2026-07-02T07:59:20Z</time></trkpt>
    <trkpt lat="46.031069" lon="7.108214"><ele>1574.0</ele><time>2026-07-02T07:59:40Z</time></trkpt>
    <trkpt lat="46.030931" lon="7.108644"><ele>1571.0</ele><time>2026-07-02T08:00:00Z</time></trkpt>
    <trkpt lat="46.030791" lon="7.109076"><ele>1566.7</ele><time>2026-07-02T08:00:20Z</time></trkpt>
    <trkpt lat="46.030653" lon="7.109506"><ele>1559.4</ele><time>2026-07-02T08:00:40Z</time></trkpt>
    <trkpt lat="46.030521" lon="7.109930"><ele>1555.7</ele><time>2026-07-02T08:01:00Z</time></trkpt>
    <trkpt lat="46.030398" lon="7.110345"><ele>1551.1</ele><time>2026-07-02T08:01:20Z</time></trkpt>
    <trkpt lat="46.030287" lon="7.110749"><ele>1548.1</ele><time>2026-07-02T08:01:40Z</time></trkpt>
    <trkpt lat="46.030190" lon="7.111138"><ele>1542.7</ele><time>2026-07-02T08:02:00Z</time></trkpt>
    <trkpt lat="46.030108" lon="7.111511"><ele>1535.1</ele><time>2026-07-02T08:02:20Z</time></trkpt>
    <trkpt lat="46.030043" lon="7.111868"><ele>1532.8</ele><time>2026-07-02T08:02:40Z</time></trkpt>
    <trkpt lat="46.029994" lon="7.112209"><ele>1528.6</ele><time>2026-07-02T08:03:00Z</time></trkpt>
    <trkpt lat="46.029962" lon="7.112534"><ele>1525.9</ele><time>2026-07-02T08:03:20Z</time></trkpt>
    <trkpt lat="46.029943" lon="7.112844"><ele>1515.5</ele><time>2026-07-02T08:03:40Z</time></trkpt>
    <trkpt lat="46.029938" lon="7.113142"><ele>1512.5</ele><time>2026-07-02T08:04:00Z</time></trkpt>
    <trkpt lat="46.029943" lon="7.113429"><ele>1510.5</ele><time>2026-07-02T08:04:20Z</time></trkpt>
    <trkpt lat="46.029955" lon="7.113709"><ele>1501.8</ele><time>2026-07-02T08:04:40Z</time></trkpt>
    <trkpt lat="46.029972" lon="7.113983"><ele>1497.3</ele><time>2026-07-02T08:05:00Z</time></trkpt>
    <trkpt lat="46.029992" lon="7.114256"><ele>1495.1</ele><time>2026-07-02T08:05:20Z</time></trkpt>
    <trkpt lat="46.030010" lon="7.114530"><ele>1491.2</ele><time>2026-07-02T08:05:40Z</time></trkpt>
    <trkpt lat="46.030024" lon="7.114808"><ele>1483.9</ele><time>2026-07-02T08:06:00Z</time></trkpt>
    <trkpt lat="46.030032" lon="7.115092"><ele>1481.0</ele><time>2026-07-02T08:06:20Z</time></trkpt>
    <trkpt lat="46.030031" lon="7.115385"><ele>1475.6</ele><time>2026-07-02T08:06:40Z</time></trkpt>
    <trkpt lat="46.030021" lon="7.115687"><ele>1473.0</ele><time>2026-07-02T08:07:00Z</time></trkpt>
    <trkpt lat="46.030000" lon="7.116000"><ele>1466.0</ele><time>2026-07-02T08:07:20Z</time></trkpt>
  </trkseg></trk>
</gpx>
